dealership_id,dealership_name,phone,city,state,website,tax_id
1,Gell Autos of Virginia,804-826-4657,Richmond,Virginia,http://www.gellautosofvirginia.com,bv-832-2h-se8w
2,Huguet Autos of Minnesota,612-307-1261,Minneapolis,Minnesota,http://www.huguetautosofminnesota.com,ub-594-qc-2hlp
3,Rutherforth Autos of New York,718-544-3706,Bronx,New York,http://www.rutherforthautosofnewyork.com,oz-423-9y-suhz
4,Nicklen Autos of Maryland,443-166-7999,Baltimore,Maryland,http://www.nicklenautosofmaryland.com,go-677-ia-08gb
5,Geard Autos of New Jersey,609-634-2385,Trenton,New Jersey,http://www.geardautosofnewjersey.com,ee-692-zp-6lm4
6,Trewhela Autos of District of Columbia,202-853-9394,Washington,District of Columbia,http://www.trewhelaautosofdistrictofcolumbia.com,xe-138-6j-wno8
7,Bellefant Autos of Minnesota,952-997-1842,Young America,Minnesota,http://www.bellefantautosofminnesota.com,lk-313-yq-eip8
8,Poser Autos of North Carolina,336-619-2489,Winston Salem,North Carolina,http://www.poserautosofnorthcarolina.com,ul-689-yd-w89r
9,Gabbatiss Autos of Alabama,205-314-2168,Tuscaloosa,Alabama,http://www.gabbatissautosofalabama.com,qe-696-fu-s1x6
10,De Mattia Autos of Texas,713-689-9725,Houston,Texas,http://www.demattiaautosoftexas.com,ar-708-hd-2pfy
11,Belward Autos of Minnesota,507-720-1558,Rochester,Minnesota,http://www.belwardautosofminnesota.com,of-163-q3-352c
12,Campos Autos of Texas,281-945-1535,Houston,Texas,http://www.camposautosoftexas.com,db-870-qz-0kug
13,Blewitt Autos of Texas,817-781-5902,Arlington,Texas,http://www.blewittautosoftexas.com,dn-461-ad-ilub
14,Dinsell Autos of Michigan,517-937-5838,Kalamazoo,Michigan,http://www.dinsellautosofmichigan.com,ke-796-yp-9phr
15,Speir Autos of Massachusetts,413-358-2250,Springfield,Massachusetts,http://www.speirautosofmassachusetts.com,fc-155-8e-0jd5
16,Pheasant Autos of Nevada,702-311-7650,Las Vegas,Nevada,http://www.pheasantautosofnevada.com,uf-298-o8-3jdo
17,Gniewosz Autos of Oklahoma,918-420-3008,Tulsa,Oklahoma,http://www.gniewoszautosofoklahoma.com,gf-414-6l-i1yo
18,Meech Autos of Texas,972-764-2178,Dallas,Texas,http://www.meechautosoftexas.com,ly-767-0k-ptox
19,Elderfield Autos of Alabama,256-403-2183,Gadsden,Alabama,http://www.elderfieldautosofalabama.com,dd-889-ma-hy6a
20,Bour Autos of Virginia,757-400-6190,Norfolk,Virginia,http://www.bourautosofvirginia.com,rv-759-3j-oe1n
21,Budik Autos of Virginia,703-370-1102,Arlington,Virginia,http://www.budikautosofvirginia.com,vo-713-7v-u1px
22,MacAne Autos of New York,718-634-6498,Brooklyn,New York,http://www.macaneautosofnewyork.com,fk-287-n8-nag6
23,Mildner Autos of Georgia,404-377-8012,Atlanta,Georgia,http://www.mildnerautosofgeorgia.com,le-801-fo-63g3
24,Quarterman Autos of Texas,832-332-3319,Houston,Texas,http://www.quartermanautosoftexas.com,fc-680-jl-s0i7
25,Firbanks Autos of Nebraska,402-346-4748,Lincoln,Nebraska,http://www.firbanksautosofnebraska.com,io-918-we-ngcr
26,Pickett Autos of Pennsylvania,570-633-5428,Scranton,Pennsylvania,http://www.pickettautosofpennsylvania.com,xs-165-dz-prtz
27,Neylon Autos of Florida,904-524-8886,Jacksonville,Florida,http://www.neylonautosofflorida.com,uv-645-9z-hqmh
28,Stuckford Autos of Connecticut,860-219-2778,Hartford,Connecticut,http://www.stuckfordautosofconnecticut.com,lh-844-1c-y85p
29,Glasner Autos of Alabama,251-403-3553,Mobile,Alabama,http://www.glasnerautosofalabama.com,ax-658-l2-3r8w
30,Haywood Autos of Nevada,702-888-3488,Las Vegas,Nevada,http://www.haywoodautosofnevada.com,hw-713-53-zidm
31,Keyzor Autos of Connecticut,203-230-9956,Waterbury,Connecticut,http://www.keyzorautosofconnecticut.com,jl-030-ti-i5rm
32,Gammill Autos of Florida,813-940-1246,Tampa,Florida,http://www.gammillautosofflorida.com,ih-435-e1-4fnu
33,Fortin Autos of New York,917-240-8195,Jamaica,New York,http://www.fortinautosofnewyork.com,xu-242-y6-0omh
34,Streatfield Autos of West Virginia,304-992-4332,Huntington,West Virginia,http://www.streatfieldautosofwestvirginia.com,qk-457-zz-a06o
35,Padkin Autos of New York,585-189-6126,Rochester,New York,http://www.padkinautosofnewyork.com,ta-905-2t-d8sx
36,Menauteau Autos of Minnesota,612-351-5514,Minneapolis,Minnesota,http://www.menauteauautosofminnesota.com,na-502-gs-4nby
37,Razzell Autos of Connecticut,203-577-9491,Fairfield,Connecticut,http://www.razzellautosofconnecticut.com,go-249-nw-dobs
38,Glason Autos of Tennessee,423-895-9709,Chattanooga,Tennessee,http://www.glasonautosoftennessee.com,ws-374-92-xx7z
39,Piccard Autos of Minnesota,651-143-9487,Saint Paul,Minnesota,http://www.piccardautosofminnesota.com,pk-379-rl-9vke
40,Liversidge Autos of Indiana,812-960-9338,Jeffersonville,Indiana,http://www.liversidgeautosofindiana.com,wl-784-3m-cnkn
41,Dollard Autos of Washington,253-629-1550,Tacoma,Washington,http://www.dollardautosofwashington.com,mu-396-ij-gli5
42,Odell Autos of Virginia,804-412-3877,Richmond,Virginia,http://www.odellautosofvirginia.com,ev-398-c3-k8hm
43,Allmark Autos of Wisconsin,920-623-6692,Appleton,Wisconsin,http://www.allmarkautosofwisconsin.com,bi-834-i3-ebpq
44,Borgesio Autos of Florida,305-511-7774,Miami,Florida,http://www.borgesioautosofflorida.com,fx-676-or-7i92
45,MacNeice Autos of California,626-355-0978,Pasadena,California,http://www.macneiceautosofcalifornia.com,hc-549-re-vprg
46,Beaty Autos of Oklahoma,918-300-7673,Tulsa,Oklahoma,http://www.beatyautosofoklahoma.com,xb-482-r2-ywsx
47,Cremins Autos of Texas,915-810-3463,El Paso,Texas,http://www.creminsautosoftexas.com,qg-848-gf-253b
48,Blackboro Autos of New Mexico,505-729-5840,Albuquerque,New Mexico,http://www.blackboroautosofnewmexico.com,bu-050-um-9exf
49,O' Dornan Autos of Virginia,571-808-5468,Arlington,Virginia,http://www.o'dornanautosofvirginia.com,iu-738-gv-bbsn
50,Sollowaye Autos of New York,212-928-8151,Jamaica,New York,http://www.sollowayeautosofnewyork.com,ls-111-qq-ij05
51,Upfold Autos of Washington,509-545-9258,Spokane,Washington,http://www.upfoldautosofwashington.com,ex-696-zv-1kwm
52,Harkus Autos of California,213-917-2985,Los Angeles,California,http://www.harkusautosofcalifornia.com,ua-226-en-ysh5
53,Lared Autos of Iowa,515-503-7551,Des Moines,Iowa,http://www.laredautosofiowa.com,sp-847-bs-dvi5
54,Litherborough Autos of Texas,713-398-8596,Houston,Texas,http://www.litherboroughautosoftexas.com,iv-065-3l-eg3u
55,Risebarer Autos of Minnesota,612-200-2879,Saint Paul,Minnesota,http://www.risebarerautosofminnesota.com,pf-398-6c-1pjh
56,Gonnin Autos of California,714-916-4432,Irvine,California,http://www.gonninautosofcalifornia.com,os-914-gu-3iij
57,Woan Autos of Florida,239-734-1176,Naples,Florida,http://www.woanautosofflorida.com,ex-599-96-y9hx
58,Smitten Autos of New York,212-979-1768,New York City,New York,http://www.smittenautosofnewyork.com,jh-792-7g-slr1
59,Hollibone Autos of New York,212-252-1910,New York City,New York,http://www.holliboneautosofnewyork.com,pd-465-ns-h4qi
60,Manion Autos of California,818-513-8294,Glendale,California,http://www.manionautosofcalifornia.com,ke-055-bf-y6h4
61,Chetham Autos of Texas,512-384-6716,Austin,Texas,http://www.chethamautosoftexas.com,xc-378-q1-qj6s
62,Benfield Autos of California,408-482-6566,San Jose,California,http://www.benfieldautosofcalifornia.com,ve-108-l4-637v
63,Pehrsson Autos of Texas,915-616-8949,El Paso,Texas,http://www.pehrssonautosoftexas.com,zu-044-3j-316v
64,Strass Autos of Kentucky,502-127-0558,Louisville,Kentucky,http://www.strassautosofkentucky.com,xz-464-hi-m2zp
65,Pyper Autos of Illinois,309-143-9787,Peoria,Illinois,http://www.pyperautosofillinois.com,ob-120-ih-cdxc
66,M'Quhan Autos of Colorado,719-862-4629,Pueblo,Colorado,http://www.m'quhanautosofcolorado.com,rh-330-uu-xwoh
67,Redhouse Autos of District of Columbia,202-665-5117,Washington,District of Columbia,http://www.redhouseautosofdistrictofcolumbia.com,hy-804-nx-akpp
68,King Autos of Nevada,702-381-0371,Las Vegas,Nevada,http://www.kingautosofnevada.com,dz-784-py-0e5i
69,Ashdown Autos of New Jersey,609-510-2978,Trenton,New Jersey,http://www.ashdownautosofnewjersey.com,hf-680-p8-7oy0
70,Attlee Autos of Virginia,757-334-7056,Portsmouth,Virginia,http://www.attleeautosofvirginia.com,bl-932-fb-xk6c
71,Rihanek Autos of Texas,361-708-5840,Corpus Christi,Texas,http://www.rihanekautosoftexas.com,ug-879-ak-vhvl
72,Skipsey Autos of Missouri,816-306-7190,Kansas City,Missouri,http://www.skipseyautosofmissouri.com,no-980-tx-3ey6
73,Iron Autos of Texas,713-759-4980,Houston,Texas,http://www.ironautosoftexas.com,zn-629-cu-49s7
74,Miko Autos of Tennessee,615-484-0377,Nashville,Tennessee,http://www.mikoautosoftennessee.com,fu-204-4x-7hyp
75,Pouck Autos of Kansas,316-961-1592,Wichita,Kansas,http://www.pouckautosofkansas.com,ad-545-wt-dwn6
76,Bathersby Autos of Maryland,301-119-5204,Hyattsville,Maryland,http://www.bathersbyautosofmaryland.com,zw-390-fp-hopm
77,Seathwright Autos of Florida,407-913-4849,Orlando,Florida,http://www.seathwrightautosofflorida.com,cl-887-gt-0u30
78,Bowerman Autos of Florida,561-326-3262,Lake Worth,Florida,http://www.bowermanautosofflorida.com,fa-879-ms-g7u6
79,Locock Autos of Florida,813-682-6504,Tampa,Florida,http://www.locockautosofflorida.com,fd-309-vr-21as
80,Gentzsch Autos of Illinois,312-929-5568,Chicago,Illinois,http://www.gentzschautosofillinois.com,sh-659-8q-y1wb
81,Kear Autos of Missouri,573-537-7227,Columbia,Missouri,http://www.kearautosofmissouri.com,vv-409-oa-i2gp
82,Quare Autos of California,818-138-6623,Pasadena,California,http://www.quareautosofcalifornia.com,ck-821-kl-sqel
83,Vignaux Autos of Illinois,773-414-8990,Chicago,Illinois,http://www.vignauxautosofillinois.com,bv-658-h1-ybty
84,Menloe Autos of Arkansas,479-371-7779,Fort Smith,Arkansas,http://www.menloeautosofarkansas.com,kp-868-xm-j3ny
85,Redihough Autos of Louisiana,504-115-8815,New Orleans,Louisiana,http://www.redihoughautosoflouisiana.com,tj-408-ip-0qa3
86,McBeith Autos of Massachusetts,978-902-2593,Waltham,Massachusetts,http://www.mcbeithautosofmassachusetts.com,mn-479-ot-hszw
87,Olivetti Autos of Ohio,937-221-1895,Dayton,Ohio,http://www.olivettiautosofohio.com,xw-029-xp-2m8e
88,Gobeaux Autos of Florida,754-617-6527,Fort Lauderdale,Florida,http://www.gobeauxautosofflorida.com,je-983-ch-jwod
89,McClifferty Autos of Wisconsin,414-869-2598,Milwaukee,Wisconsin,http://www.mccliffertyautosofwisconsin.com,ls-971-5u-d0dh
90,Leinweber Autos of Kansas,913-734-7581,Shawnee Mission,Kansas,http://www.leinweberautosofkansas.com,gu-357-y8-xwqr
91,Gurys Autos of California,510-211-4615,Oakland,California,http://www.gurysautosofcalifornia.com,qh-987-57-k4ub
92,Vankin Autos of California,209-585-9154,Stockton,California,http://www.vankinautosofcalifornia.com,lr-145-wy-8hxb
93,Overton Autos of South Carolina,803-695-6571,Columbia,South Carolina,http://www.overtonautosofsouthcarolina.com,yd-134-ev-xf2a
94,Casone Autos of Kentucky,502-344-8521,Louisville,Kentucky,http://www.casoneautosofkentucky.com,gf-960-09-fdza
95,O' Driscoll Autos of Georgia,404-592-7138,Atlanta,Georgia,http://www.o'driscollautosofgeorgia.com,qm-518-qw-8mtc
96,Duckerin Autos of California,415-444-8222,San Francisco,California,http://www.duckerinautosofcalifornia.com,jh-451-en-dm1y
97,MacDearmaid Autos of Ohio,419-310-1663,Toledo,Ohio,http://www.macdearmaidautosofohio.com,er-360-os-mm7i
98,Tremoille Autos of California,626-130-8987,Pasadena,California,http://www.tremoilleautosofcalifornia.com,hz-657-wu-uwrg
99,Vairow Autos of New Jersey,908-470-5401,Elizabeth,New Jersey,http://www.vairowautosofnewjersey.com,sa-784-lc-dgdp
100,Haygreen Autos of Virginia,540-110-6618,Roanoke,Virginia,http://www.haygreenautosofvirginia.com,td-536-sg-w5zj
101,Lawman Autos of California,559-267-7868,Fresno,California,http://www.lawmanautosofcalifornia.com,cv-182-hh-lex3
102,Benko Autos of North Carolina,919-331-5263,Raleigh,North Carolina,http://www.benkoautosofnorthcarolina.com,rd-485-dc-w19d
103,Bedbrough Autos of Virginia,540-513-4596,Fredericksburg,Virginia,http://www.bedbroughautosofvirginia.com,nz-692-0j-mcf4
104,Dowry Autos of California,760-862-3439,San Bernardino,California,http://www.dowryautosofcalifornia.com,be-352-3v-brii
105,Skully Autos of Florida,813-530-9830,Zephyrhills,Florida,http://www.skullyautosofflorida.com,ke-526-nh-fnhq
106,Simonard Autos of Michigan,313-392-8951,Detroit,Michigan,http://www.simonardautosofmichigan.com,ix-607-gq-jsrr
107,Harkins Autos of Colorado,719-155-9973,Colorado Springs,Colorado,http://www.harkinsautosofcolorado.com,ph-876-4n-8i13
108,Grist Autos of Oklahoma,918-994-5171,Tulsa,Oklahoma,http://www.gristautosofoklahoma.com,ct-050-is-ere0
109,Southey Autos of Connecticut,203-448-6191,New Haven,Connecticut,http://www.southeyautosofconnecticut.com,yh-130-pu-pudw
110,Pinckney Autos of Florida,305-442-8906,Hollywood,Florida,http://www.pinckneyautosofflorida.com,da-475-pn-o9x1
111,Basford Autos of South Carolina,843-441-7259,Beaufort,South Carolina,http://www.basfordautosofsouthcarolina.com,tv-717-lg-103d
112,McConaghy Autos of Maryland,410-689-2692,Baltimore,Maryland,http://www.mcconaghyautosofmaryland.com,br-441-oi-v4li
113,Ossipenko Autos of California,760-620-6199,Carlsbad,California,http://www.ossipenkoautosofcalifornia.com,fa-369-p7-9qer
114,Leele Autos of Kansas,316-497-7766,Wichita,Kansas,http://www.leeleautosofkansas.com,hs-081-eo-tibs
115,Sawood Autos of California,408-554-5401,San Jose,California,http://www.sawoodautosofcalifornia.com,mw-697-2h-4moi
116,Witherbed Autos of New York,516-638-3706,Port Washington,New York,http://www.witherbedautosofnewyork.com,ii-028-u3-kukt
117,Andrzejewski Autos of Kansas,785-460-4597,Topeka,Kansas,http://www.andrzejewskiautosofkansas.com,fn-344-kn-jj8f
118,Ruxton Autos of Wisconsin,414-180-1847,Milwaukee,Wisconsin,http://www.ruxtonautosofwisconsin.com,yo-445-nx-9tk6
119,Domm Autos of Florida,904-727-0992,Saint Augustine,Florida,http://www.dommautosofflorida.com,xp-188-jj-3qt5
120,Pechan Autos of Virginia,757-712-8827,Portsmouth,Virginia,http://www.pechanautosofvirginia.com,me-835-2s-rerm
121,Scotting Autos of Georgia,678-287-5195,Decatur,Georgia,http://www.scottingautosofgeorgia.com,qy-554-3a-wl22
122,Caret Autos of Tennessee,865-475-1632,Knoxville,Tennessee,http://www.caretautosoftennessee.com,jl-038-hm-rfqm
123,Sutor Autos of Kentucky,502-472-3433,Louisville,Kentucky,http://www.sutorautosofkentucky.com,zs-955-93-9grx
124,Dumingo Autos of New Jersey,201-826-5634,Paterson,New Jersey,http://www.dumingoautosofnewjersey.com,lj-570-2s-b4rb
125,Blunn Autos of Texas,325-594-1048,Abilene,Texas,http://www.blunnautosoftexas.com,jn-472-4b-qa7j
126,Mandre Autos of West Virginia,304-427-7622,Charleston,West Virginia,http://www.mandreautosofwestvirginia.com,fq-221-5b-j3w7
127,Dodman Autos of Texas,830-876-7694,San Antonio,Texas,http://www.dodmanautosoftexas.com,kc-015-7x-lqfi
128,Hrishchenko Autos of New York,212-915-4659,New York City,New York,http://www.hrishchenkoautosofnewyork.com,ho-896-de-ih7v
129,Scrogges Autos of District of Columbia,202-569-8472,Washington,District of Columbia,http://www.scroggesautosofdistrictofcolumbia.com,ob-017-mk-fdkd
130,Pecey Autos of Texas,915-271-5663,El Paso,Texas,http://www.peceyautosoftexas.com,sn-364-ir-210b
131,Cattell Autos of New York,917-978-5277,Brooklyn,New York,http://www.cattellautosofnewyork.com,km-892-ka-kt4r
132,Dowty Autos of California,408-273-1853,San Jose,California,http://www.dowtyautosofcalifornia.com,wu-621-qj-6fjq
133,Short Autos of Virginia,571-949-6318,Arlington,Virginia,http://www.shortautosofvirginia.com,hf-780-lz-rr1h
134,Middlemiss Autos of Illinois,309-177-6917,Bloomington,Illinois,http://www.middlemissautosofillinois.com,fd-646-xd-v2j1
135,Oldridge Autos of Texas,254-259-0562,Gatesville,Texas,http://www.oldridgeautosoftexas.com,dq-791-8z-ia5h
136,Goddard Autos of Alabama,256-589-9166,Huntsville,Alabama,http://www.goddardautosofalabama.com,av-217-77-yoyt
137,Leale Autos of Texas,469-670-8216,Dallas,Texas,http://www.lealeautosoftexas.com,my-301-uk-o53v
138,Bowers Autos of District of Columbia,202-415-6829,Washington,District of Columbia,http://www.bowersautosofdistrictofcolumbia.com,lq-227-c5-7314
139,Haselden Autos of Connecticut,860-875-9989,Hartford,Connecticut,http://www.haseldenautosofconnecticut.com,ua-974-6y-6wfq
140,Bryns Autos of Virginia,540-306-8589,Roanoke,Virginia,http://www.brynsautosofvirginia.com,tg-821-84-91c0
141,Planke Autos of Maryland,301-577-6813,Laurel,Maryland,http://www.plankeautosofmaryland.com,dd-906-is-s7dq
142,Sussex Autos of Ohio,513-825-9337,Cincinnati,Ohio,http://www.sussexautosofohio.com,kc-129-e8-6xdj
143,Forsythe Autos of Texas,210-218-7764,San Antonio,Texas,http://www.forsytheautosoftexas.com,dj-669-cx-zcmc
144,Lande Autos of New York,718-372-7747,Flushing,New York,http://www.landeautosofnewyork.com,xi-374-c9-thtz
145,Mansion Autos of Texas,214-447-1956,Dallas,Texas,http://www.mansionautosoftexas.com,qo-365-25-yef6
146,Abrashkov Autos of California,310-454-3493,Inglewood,California,http://www.abrashkovautosofcalifornia.com,bd-375-mm-xrec
147,Limbert Autos of Texas,512-413-8159,Austin,Texas,http://www.limbertautosoftexas.com,tp-941-2l-flcg
148,Howroyd Autos of California,559-108-1854,Fresno,California,http://www.howroydautosofcalifornia.com,mk-007-sg-yp87
149,Francis Autos of Minnesota,952-836-1984,Minneapolis,Minnesota,http://www.francisautosofminnesota.com,gu-275-32-w893
150,Ainge Autos of New York,646-444-5658,New York City,New York,http://www.aingeautosofnewyork.com,ad-637-wc-issg
151,Kegan Autos of Ohio,513-784-2133,Cincinnati,Ohio,http://www.keganautosofohio.com,mk-746-04-gtl7
152,McGovern Autos of Texas,214-420-7292,Dallas,Texas,http://www.mcgovernautosoftexas.com,ju-800-gn-pidy
153,Hutchence Autos of Florida,904-824-7835,Jacksonville,Florida,http://www.hutchenceautosofflorida.com,gy-923-12-ssqk
154,Hicken Autos of Texas,281-495-6020,Houston,Texas,http://www.hickenautosoftexas.com,tu-480-o9-szpw
155,Joerning Autos of New York,716-895-7021,Buffalo,New York,http://www.joerningautosofnewyork.com,ki-356-63-ar89
156,Worswick Autos of Michigan,810-238-7300,Detroit,Michigan,http://www.worswickautosofmichigan.com,dr-267-vd-qipp
157,Dondon Autos of Idaho,208-766-0293,Pocatello,Idaho,http://www.dondonautosofidaho.com,vn-989-js-3zee
158,Flockhart Autos of Colorado,719-230-0610,Colorado Springs,Colorado,http://www.flockhartautosofcolorado.com,ur-929-45-yg4t
159,Earle Autos of Illinois,217-994-0226,Springfield,Illinois,http://www.earleautosofillinois.com,qm-789-th-tadd
160,Cordet Autos of Kansas,785-541-9577,Topeka,Kansas,http://www.cordetautosofkansas.com,gj-264-ql-ly1x
161,Balhatchet Autos of Virginia,804-834-9329,Richmond,Virginia,http://www.balhatchetautosofvirginia.com,dx-562-bf-kbkq
162,Brion Autos of Utah,801-910-5003,Sandy,Utah,http://www.brionautosofutah.com,lx-884-r2-axqv
163,Chrisp Autos of Texas,713-178-4260,Houston,Texas,http://www.chrispautosoftexas.com,iu-377-hg-z9xw
164,Gerry Autos of California,562-605-6262,Long Beach,California,http://www.gerryautosofcalifornia.com,mv-978-v0-2k4x
165,Emilien Autos of Florida,786-198-4693,Miami,Florida,http://www.emilienautosofflorida.com,gn-323-yb-zkls
166,Bollom Autos of District of Columbia,202-551-9760,Washington,District of Columbia,http://www.bollomautosofdistrictofcolumbia.com,mb-984-1k-i8nb
167,Smidmoor Autos of Oklahoma,918-605-0195,Tulsa,Oklahoma,http://www.smidmoorautosofoklahoma.com,ld-329-rp-dqmu
168,Andrelli Autos of District of Columbia,202-534-5250,Washington,District of Columbia,http://www.andrelliautosofdistrictofcolumbia.com,fd-880-z0-3b35
169,Gabotti Autos of Alabama,205-562-3679,Birmingham,Alabama,http://www.gabottiautosofalabama.com,wy-708-zx-v3yj
170,Playford Autos of Washington,360-114-1363,Vancouver,Washington,http://www.playfordautosofwashington.com,hu-520-yi-c1t0
171,Botterill Autos of Arizona,520-998-7471,Tucson,Arizona,http://www.botterillautosofarizona.com,iv-041-5l-i7nz
172,Hibling Autos of Florida,305-267-1201,Miami Beach,Florida,http://www.hiblingautosofflorida.com,ju-967-80-cg70
173,Pegden Autos of California,415-965-1819,San Francisco,California,http://www.pegdenautosofcalifornia.com,vf-892-hc-o5qh
174,Pudden Autos of Colorado,720-506-1969,Denver,Colorado,http://www.puddenautosofcolorado.com,jq-901-v5-uyci
175,Tayt Autos of Florida,239-827-1595,Naples,Florida,http://www.taytautosofflorida.com,lp-740-9z-my4z
176,Tremblay Autos of Texas,713-218-0182,Houston,Texas,http://www.tremblayautosoftexas.com,ks-425-kr-y3o4
177,Ronca Autos of Colorado,303-816-0214,Denver,Colorado,http://www.roncaautosofcolorado.com,ct-101-m4-swuz
178,Delve Autos of New York,646-821-7623,New York City,New York,http://www.delveautosofnewyork.com,ra-308-nk-drcf
179,Skipworth Autos of Ohio,440-837-0591,Cleveland,Ohio,http://www.skipworthautosofohio.com,js-341-dk-lx4c
180,Stainfield Autos of Alabama,256-253-7319,Anniston,Alabama,http://www.stainfieldautosofalabama.com,ry-647-x4-5uzp
181,Behne Autos of Wisconsin,608-881-7096,Madison,Wisconsin,http://www.behneautosofwisconsin.com,hu-731-si-kl91
182,Klimochkin Autos of Texas,713-861-8241,Houston,Texas,http://www.klimochkinautosoftexas.com,ra-080-ax-drmw
183,Dreye Autos of Illinois,309-698-8150,Peoria,Illinois,http://www.dreyeautosofillinois.com,ns-806-9m-ij72
184,Tomanek Autos of Florida,754-644-0831,Pompano Beach,Florida,http://www.tomanekautosofflorida.com,ph-593-rp-3osf
185,Fraine Autos of New Jersey,609-468-2739,Trenton,New Jersey,http://www.fraineautosofnewjersey.com,qg-195-ah-pltw
186,Nottingham Autos of District of Columbia,202-965-5052,Washington,District of Columbia,http://www.nottinghamautosofdistrictofcolumbia.com,oa-644-tm-5wzz
187,Sire Autos of Iowa,563-934-3135,Davenport,Iowa,http://www.sireautosofiowa.com,jo-008-qz-2dtc
188,Hawke Autos of Ohio,330-811-4432,Akron,Ohio,http://www.hawkeautosofohio.com,wl-985-kr-5e1h
189,Redfearn Autos of Kentucky,502-381-4132,Louisville,Kentucky,http://www.redfearnautosofkentucky.com,xj-832-h2-ztbk
190,MacEllen Autos of Minnesota,651-943-5077,Saint Paul,Minnesota,http://www.macellenautosofminnesota.com,jz-556-e7-p8jp
191,Masson Autos of Massachusetts,508-692-4090,Brockton,Massachusetts,http://www.massonautosofmassachusetts.com,wj-681-tt-btj4
192,Judd Autos of Texas,936-713-5010,Conroe,Texas,http://www.juddautosoftexas.com,qv-447-w7-idf7
193,Faunch Autos of California,951-275-2744,Corona,California,http://www.faunchautosofcalifornia.com,th-182-tx-5zlh
194,Bryns Autos of Connecticut,203-111-6730,New Haven,Connecticut,http://www.brynsautosofconnecticut.com,lv-573-fj-jgqz
195,Janks Autos of Tennessee,901-806-7567,Memphis,Tennessee,http://www.janksautosoftennessee.com,wd-643-8y-vsvg
196,Desforges Autos of Florida,561-554-4969,Delray Beach,Florida,http://www.desforgesautosofflorida.com,wy-702-rf-ncep
197,Alten Autos of California,619-597-5110,San Diego,California,http://www.altenautosofcalifornia.com,wd-179-20-u31j
198,Sturm Autos of Maryland,410-355-9357,Baltimore,Maryland,http://www.sturmautosofmaryland.com,au-066-3m-g357
199,Ford Autos of New Mexico,505-660-2854,Albuquerque,New Mexico,http://www.fordautosofnewmexico.com,pr-549-ir-q5lm
200,Hefferan Autos of Pennsylvania,412-835-4707,Pittsburgh,Pennsylvania,http://www.hefferanautosofpennsylvania.com,wk-773-nh-0ke0
201,Tolputt Autos of Alabama,205-457-0500,Birmingham,Alabama,http://www.tolputtautosofalabama.com,fn-329-r8-na76
202,Irving Autos of District of Columbia,202-255-5721,Washington,District of Columbia,http://www.irvingautosofdistrictofcolumbia.com,fq-822-vm-wxer
203,Burcher Autos of California,949-338-2796,Santa Clara,California,http://www.burcherautosofcalifornia.com,dn-969-st-utok
204,Ferron Autos of Florida,407-984-0600,Orlando,Florida,http://www.ferronautosofflorida.com,cr-768-3y-ems2
205,Foxall Autos of New York,212-934-8452,Brooklyn,New York,http://www.foxallautosofnewyork.com,dz-899-t7-lzwh
206,Skein Autos of Georgia,678-251-0849,Atlanta,Georgia,http://www.skeinautosofgeorgia.com,te-069-x7-0gqs
207,Torald Autos of Florida,941-105-1952,Naples,Florida,http://www.toraldautosofflorida.com,th-598-a1-k1z6
208,Griffen Autos of Texas,512-218-0690,Austin,Texas,http://www.griffenautosoftexas.com,ep-684-av-kfzg
209,Ritzman Autos of California,510-369-9678,Oakland,California,http://www.ritzmanautosofcalifornia.com,me-548-r0-ljyz
210,Scocroft Autos of Georgia,404-330-8957,Atlanta,Georgia,http://www.scocroftautosofgeorgia.com,uv-814-j0-bv70
211,Cadagan Autos of Florida,754-577-2602,Pompano Beach,Florida,http://www.cadaganautosofflorida.com,df-068-dt-wi4v
212,Bittlestone Autos of Texas,512-762-5263,Austin,Texas,http://www.bittlestoneautosoftexas.com,ps-235-zc-xt6a
213,Ruusa Autos of California,661-921-9977,Bakersfield,California,http://www.ruusaautosofcalifornia.com,un-332-qz-acuv
214,Bramont Autos of Texas,682-229-3173,Fort Worth,Texas,http://www.bramontautosoftexas.com,nz-013-aj-5h59
215,Nurdin Autos of Illinois,217-772-8130,Springfield,Illinois,http://www.nurdinautosofillinois.com,pa-656-st-tp1n
216,Sarch Autos of New York,518-218-8282,Albany,New York,http://www.sarchautosofnewyork.com,be-312-qr-g9nh
217,Laugier Autos of Florida,850-709-0590,Tallahassee,Florida,http://www.laugierautosofflorida.com,vf-119-93-27v0
218,Provost Autos of Pennsylvania,717-372-1739,Lancaster,Pennsylvania,http://www.provostautosofpennsylvania.com,xl-862-yl-6k7n
219,Gershom Autos of Pennsylvania,215-956-2283,Philadelphia,Pennsylvania,http://www.gershomautosofpennsylvania.com,fz-139-65-c3c5
220,Sissland Autos of New York,716-518-4733,Buffalo,New York,http://www.sisslandautosofnewyork.com,bg-935-br-q032
221,Lidstone Autos of Maryland,301-401-1647,Hyattsville,Maryland,http://www.lidstoneautosofmaryland.com,id-116-9t-qsiz
222,Bozworth Autos of North Carolina,910-527-3934,Fayetteville,North Carolina,http://www.bozworthautosofnorthcarolina.com,wk-674-w0-4db4
223,Pinching Autos of Georgia,478-424-3446,Macon,Georgia,http://www.pinchingautosofgeorgia.com,lk-804-o4-0y0j
224,Ianetti Autos of South Dakota,605-760-9156,Sioux Falls,South Dakota,http://www.ianettiautosofsouthdakota.com,bc-182-85-c8hh
225,Jewel Autos of California,661-587-3357,Burbank,California,http://www.jewelautosofcalifornia.com,yl-161-6y-ujxb
226,Levane Autos of Oklahoma,405-410-1603,Oklahoma City,Oklahoma,http://www.levaneautosofoklahoma.com,gm-470-0a-tkip
227,Bownd Autos of Washington,509-476-7693,Spokane,Washington,http://www.bowndautosofwashington.com,gd-119-zf-xf4g
228,Gertray Autos of Virginia,804-102-9718,Richmond,Virginia,http://www.gertrayautosofvirginia.com,oi-227-rt-4ht7
229,Betje Autos of California,559-766-9968,Fresno,California,http://www.betjeautosofcalifornia.com,ml-606-1b-nm5t
230,Atkinson Autos of Washington,425-345-4992,Seattle,Washington,http://www.atkinsonautosofwashington.com,in-830-m0-fj8s
231,Maskall Autos of Arizona,602-419-0131,Phoenix,Arizona,http://www.maskallautosofarizona.com,hk-996-ui-ilhr
232,Downgate Autos of Kansas,316-642-9918,Wichita,Kansas,http://www.downgateautosofkansas.com,lt-068-su-d5tb
233,Nadin Autos of Virginia,571-540-8416,Falls Church,Virginia,http://www.nadinautosofvirginia.com,ju-071-bf-jixn
234,Mattheissen Autos of Colorado,720-294-8033,Denver,Colorado,http://www.mattheissenautosofcolorado.com,tx-632-7f-7lwz
235,Delooze Autos of Florida,352-840-3705,Gainesville,Florida,http://www.deloozeautosofflorida.com,zm-587-sg-a3h6
236,Saurin Autos of Virginia,571-632-5667,Dulles,Virginia,http://www.saurinautosofvirginia.com,zn-410-fp-4phv
237,Lynskey Autos of Alabama,334-104-6838,Montgomery,Alabama,http://www.lynskeyautosofalabama.com,cw-347-no-yah5
238,Parkeson Autos of Ohio,234-260-7565,Canton,Ohio,http://www.parkesonautosofohio.com,eo-235-rr-noir
239,Emmison Autos of Louisiana,225-100-3924,Baton Rouge,Louisiana,http://www.emmisonautosoflouisiana.com,yz-701-d1-1mm6
240,Yakobowitz Autos of District of Columbia,202-645-8867,Washington,District of Columbia,http://www.yakobowitzautosofdistrictofcolumbia.com,os-635-98-qn3e
241,Jahnke Autos of Texas,281-560-4735,Houston,Texas,http://www.jahnkeautosoftexas.com,sw-829-sn-j5k7
242,Scamal Autos of Wisconsin,608-893-5891,Madison,Wisconsin,http://www.scamalautosofwisconsin.com,sn-532-dy-f7ic
243,McAline Autos of Florida,727-723-2675,Clearwater,Florida,http://www.mcalineautosofflorida.com,gx-271-hq-ug2m
244,Leng Autos of Iowa,515-645-5044,Des Moines,Iowa,http://www.lengautosofiowa.com,td-296-jr-2xs9
245,Fyfield Autos of Alabama,256-489-7499,Huntsville,Alabama,http://www.fyfieldautosofalabama.com,es-905-4t-bkiq
246,Franzotto Autos of Florida,754-169-1989,Pompano Beach,Florida,http://www.franzottoautosofflorida.com,wq-936-k0-p9zz
247,Rosita Autos of Alabama,205-865-9113,Birmingham,Alabama,http://www.rositaautosofalabama.com,ia-458-n4-aace
248,Carverhill Autos of New York,212-304-7217,Jamaica,New York,http://www.carverhillautosofnewyork.com,wz-801-0i-opyn
249,Ryam Autos of Missouri,314-518-3616,Saint Louis,Missouri,http://www.ryamautosofmissouri.com,mx-210-b5-bmtl
250,Leaney Autos of California,916-587-2025,Sacramento,California,http://www.leaneyautosofcalifornia.com,fg-925-pm-9d58
251,Van den Velde Autos of Wisconsin,608-635-2141,Madison,Wisconsin,http://www.vandenveldeautosofwisconsin.com,mp-706-md-wstm
252,Flintoffe Autos of California,310-765-2179,Torrance,California,http://www.flintoffeautosofcalifornia.com,of-621-zn-igup
253,Justis Autos of Nevada,775-928-9084,Sparks,Nevada,http://www.justisautosofnevada.com,jt-703-9v-ih58
254,Stitcher Autos of New York,585-339-4792,Rochester,New York,http://www.stitcherautosofnewyork.com,io-681-p8-mx5d
255,Lamborne Autos of Minnesota,507-711-4457,Rochester,Minnesota,http://www.lamborneautosofminnesota.com,on-103-cs-elqn
256,Hawford Autos of Louisiana,318-856-2754,Monroe,Louisiana,http://www.hawfordautosoflouisiana.com,dk-279-d7-ae7b
257,Fury Autos of California,323-150-7129,Los Angeles,California,http://www.furyautosofcalifornia.com,bz-465-6d-qy9g
258,Di Biagio Autos of Illinois,773-971-0223,Chicago,Illinois,http://www.dibiagioautosofillinois.com,rd-217-g8-5omx
259,Kinahan Autos of Texas,915-828-3278,El Paso,Texas,http://www.kinahanautosoftexas.com,bb-687-ga-dqhb
260,Corn Autos of Wisconsin,920-414-5868,Green Bay,Wisconsin,http://www.cornautosofwisconsin.com,xu-410-op-c064
261,Loadsman Autos of Florida,813-312-1236,Tampa,Florida,http://www.loadsmanautosofflorida.com,ch-463-xo-btd7
262,Dani Autos of California,909-583-9179,San Bernardino,California,http://www.daniautosofcalifornia.com,bj-445-id-6wda
263,Godball Autos of New Mexico,505-813-1886,Albuquerque,New Mexico,http://www.godballautosofnewmexico.com,aj-902-3i-vkqm
264,Gurry Autos of California,805-966-9663,Ventura,California,http://www.gurryautosofcalifornia.com,fr-314-sj-wk00
265,Anyon Autos of Pennsylvania,610-576-2246,Philadelphia,Pennsylvania,http://www.anyonautosofpennsylvania.com,tt-182-ot-aihm
266,Imrie Autos of Pennsylvania,215-665-3370,Philadelphia,Pennsylvania,http://www.imrieautosofpennsylvania.com,dp-172-lm-0eao
267,Chater Autos of Pennsylvania,717-750-6334,Harrisburg,Pennsylvania,http://www.chaterautosofpennsylvania.com,ob-627-uy-x3qk
268,Koche Autos of North Carolina,919-135-0630,Raleigh,North Carolina,http://www.kocheautosofnorthcarolina.com,az-675-9y-w6hs
269,Pieters Autos of Kansas,913-283-7112,Shawnee Mission,Kansas,http://www.pietersautosofkansas.com,pu-875-s7-vvky
270,Timcke Autos of Illinois,217-276-3492,Champaign,Illinois,http://www.timckeautosofillinois.com,ak-980-cq-6t3v
271,Pallaske Autos of Arkansas,501-189-9710,Hot Springs National Park,Arkansas,http://www.pallaskeautosofarkansas.com,ga-240-hp-g7fc
272,Barukh Autos of Arizona,520-192-0292,Tucson,Arizona,http://www.barukhautosofarizona.com,hv-426-7x-lz8w
273,Freyne Autos of Oregon,971-197-2952,Portland,Oregon,http://www.freyneautosoforegon.com,hr-048-p1-31fs
274,Dunbleton Autos of Tennessee,901-863-8546,Memphis,Tennessee,http://www.dunbletonautosoftennessee.com,fd-223-iz-t4aa
275,Rheaume Autos of Texas,713-376-9461,Houston,Texas,http://www.rheaumeautosoftexas.com,sx-521-bx-b3x8
276,Cotterell Autos of Utah,801-136-3220,Salt Lake City,Utah,http://www.cotterellautosofutah.com,wb-966-hw-yxva
277,Petruk Autos of Florida,407-888-1772,Orlando,Florida,http://www.petrukautosofflorida.com,ah-240-w6-kxhw
278,Bonas Autos of Texas,281-711-0820,Houston,Texas,http://www.bonasautosoftexas.com,ia-611-xq-z59c
279,Melbert Autos of Illinois,815-213-9070,Rockford,Illinois,http://www.melbertautosofillinois.com,pz-258-g2-7lac
280,Thrower Autos of California,909-521-6343,Riverside,California,http://www.throwerautosofcalifornia.com,ee-226-q7-swyo
281,Albisser Autos of Michigan,616-611-0891,Grand Rapids,Michigan,http://www.albisserautosofmichigan.com,av-744-2p-hos0
282,Disbury Autos of Pennsylvania,814-310-1506,Erie,Pennsylvania,http://www.disburyautosofpennsylvania.com,fz-821-wa-va1a
283,Kibbe Autos of Michigan,313-480-9317,Detroit,Michigan,http://www.kibbeautosofmichigan.com,ux-785-vs-a3h7
284,Ashbolt Autos of California,619-622-9635,San Diego,California,http://www.ashboltautosofcalifornia.com,mw-625-dy-q224
285,MacCartair Autos of Texas,713-171-3306,Houston,Texas,http://www.maccartairautosoftexas.com,nc-763-9y-f8q1
286,Eadington Autos of Texas,254-806-1224,Temple,Texas,http://www.eadingtonautosoftexas.com,ym-273-ku-4qhc
287,Brisson Autos of Montana,406-664-1895,Billings,Montana,http://www.brissonautosofmontana.com,zc-339-qz-w63u
288,Baud Autos of Georgia,678-728-0681,Atlanta,Georgia,http://www.baudautosofgeorgia.com,lz-494-v7-yche
289,Basill Autos of Ohio,330-290-5950,Akron,Ohio,http://www.basillautosofohio.com,mh-201-mk-g31s
290,Liebmann Autos of Georgia,706-874-8711,Columbus,Georgia,http://www.liebmannautosofgeorgia.com,ts-331-3z-5woy
291,Bruster Autos of Pennsylvania,717-216-7703,Harrisburg,Pennsylvania,http://www.brusterautosofpennsylvania.com,ak-819-81-5d1d
292,Strippling Autos of Massachusetts,857-366-0069,Boston,Massachusetts,http://www.stripplingautosofmassachusetts.com,sr-683-26-g3ix
293,Pfeuffer Autos of Florida,561-493-6739,West Palm Beach,Florida,http://www.pfeufferautosofflorida.com,cd-289-f4-g4kd
294,Potte Autos of South Carolina,803-463-6445,Columbia,South Carolina,http://www.potteautosofsouthcarolina.com,wj-535-os-9d8o
295,Westwell Autos of Virginia,757-540-8052,Herndon,Virginia,http://www.westwellautosofvirginia.com,tb-957-7c-n0gg
296,Lemmertz Autos of Minnesota,952-701-8600,Young America,Minnesota,http://www.lemmertzautosofminnesota.com,wm-448-1o-ac8i
297,Wardle Autos of North Carolina,336-353-5815,High Point,North Carolina,http://www.wardleautosofnorthcarolina.com,ce-097-5x-9jb0
298,Toomey Autos of Ohio,614-150-8590,Columbus,Ohio,http://www.toomeyautosofohio.com,xd-065-2w-z9wa
299,Chappelle Autos of Minnesota,612-560-7464,Minneapolis,Minnesota,http://www.chappelleautosofminnesota.com,ui-537-16-h9yj
300,Voff Autos of Colorado,720-128-0536,Littleton,Colorado,http://www.voffautosofcolorado.com,jy-907-mz-ncqk
301,Quarton Autos of Oklahoma,918-382-0091,Tulsa,Oklahoma,http://www.quartonautosofoklahoma.com,ka-157-ar-8ggu
302,Nisius Autos of District of Columbia,202-255-0432,Washington,District of Columbia,http://www.nisiusautosofdistrictofcolumbia.com,qw-240-iq-ucc3
303,Ounsworth Autos of Indiana,317-511-3570,Indianapolis,Indiana,http://www.ounsworthautosofindiana.com,nw-385-7f-v7w5
304,Whitham Autos of Arizona,602-384-5349,Phoenix,Arizona,http://www.whithamautosofarizona.com,li-747-z4-m5lg
305,Cribbins Autos of California,805-756-8853,Oxnard,California,http://www.cribbinsautosofcalifornia.com,oi-810-hz-zedo
306,La Padula Autos of Alaska,907-314-3005,Fairbanks,Alaska,http://www.lapadulaautosofalaska.com,vd-824-d4-wpyn
307,Pavolini Autos of Arkansas,501-401-5891,Little Rock,Arkansas,http://www.pavoliniautosofarkansas.com,us-112-o7-mg6s
308,Bebbington Autos of Florida,407-589-8739,Daytona Beach,Florida,http://www.bebbingtonautosofflorida.com,ie-939-tw-xw85
309,Sancroft Autos of Indiana,812-832-8703,Terre Haute,Indiana,http://www.sancroftautosofindiana.com,rq-463-3d-rked
310,Reeve Autos of Florida,813-874-5889,Tampa,Florida,http://www.reeveautosofflorida.com,ug-886-lw-em3w
311,Blumfield Autos of District of Columbia,202-930-4187,Washington,District of Columbia,http://www.blumfieldautosofdistrictofcolumbia.com,yu-090-rb-nf1w
312,Stallybrass Autos of Minnesota,612-293-0220,Minneapolis,Minnesota,http://www.stallybrassautosofminnesota.com,ci-621-z0-25dj
313,Roussel Autos of North Carolina,704-527-7527,Charlotte,North Carolina,http://www.rousselautosofnorthcarolina.com,in-324-x1-kd7q
314,Churchill Autos of Virginia,202-969-4976,Alexandria,Virginia,http://www.churchillautosofvirginia.com,qm-315-eh-kxl7
315,Filpi Autos of Florida,754-519-5612,Fort Lauderdale,Florida,http://www.filpiautosofflorida.com,io-862-5r-mdne
316,Nurcombe Autos of South Dakota,605-378-7280,Sioux Falls,South Dakota,http://www.nurcombeautosofsouthdakota.com,mk-394-s7-j1u1
317,Noen Autos of California,626-893-5932,Pasadena,California,http://www.noenautosofcalifornia.com,ru-000-c1-hpee
318,Huerta Autos of Nevada,775-879-8558,Carson City,Nevada,http://www.huertaautosofnevada.com,to-384-me-dgqe
319,Auden Autos of Alabama,205-771-5280,Birmingham,Alabama,http://www.audenautosofalabama.com,bq-013-x9-3gpa
320,Zoppie Autos of Texas,972-882-3763,Denton,Texas,http://www.zoppieautosoftexas.com,oy-742-6k-aprj
321,Salvador Autos of Virginia,757-229-9971,Chesapeake,Virginia,http://www.salvadorautosofvirginia.com,rp-189-a6-gvhp
322,Cadreman Autos of New York,718-794-0202,New York City,New York,http://www.cadremanautosofnewyork.com,za-071-tn-46sn
323,Krojn Autos of Connecticut,860-425-4699,Hartford,Connecticut,http://www.krojnautosofconnecticut.com,kz-401-lw-cplr
324,Wegener Autos of California,650-251-0282,Los Angeles,California,http://www.wegenerautosofcalifornia.com,lo-649-ey-b332
325,Ipwell Autos of California,951-234-8146,Riverside,California,http://www.ipwellautosofcalifornia.com,ho-955-q1-cn3k
326,Outright Autos of Nebraska,402-945-8019,Omaha,Nebraska,http://www.outrightautosofnebraska.com,pz-462-10-ccfq
327,Jory Autos of Missouri,314-887-8899,Saint Louis,Missouri,http://www.joryautosofmissouri.com,fs-197-5o-22fo
328,Karp Autos of Florida,407-724-8148,Orlando,Florida,http://www.karpautosofflorida.com,ok-983-qc-vfbt
329,Mawne Autos of Florida,727-427-8954,Saint Petersburg,Florida,http://www.mawneautosofflorida.com,mg-856-q8-tqt2
330,Tipping Autos of Minnesota,218-554-2363,Duluth,Minnesota,http://www.tippingautosofminnesota.com,kk-967-2w-4omt
331,Chestle Autos of Kentucky,502-602-3569,Louisville,Kentucky,http://www.chestleautosofkentucky.com,lc-993-ys-xrqk
332,Cleiment Autos of Arizona,520-700-0050,Phoenix,Arizona,http://www.cleimentautosofarizona.com,bk-973-ne-iwh9
333,Duthie Autos of Ohio,234-689-6090,Canton,Ohio,http://www.duthieautosofohio.com,bp-602-k5-lwbf
334,Rumsby Autos of Florida,850-638-5300,Pensacola,Florida,http://www.rumsbyautosofflorida.com,fn-113-8y-mgyi
335,Fussen Autos of South Carolina,843-359-9410,Myrtle Beach,South Carolina,http://www.fussenautosofsouthcarolina.com,jo-524-o2-jr1b
336,Cordelette Autos of Alabama,205-647-8804,Birmingham,Alabama,http://www.cordeletteautosofalabama.com,ph-673-gm-121k
337,Leguay Autos of California,916-211-5968,Sacramento,California,http://www.leguayautosofcalifornia.com,us-715-fz-y988
338,Hathorn Autos of Kentucky,502-188-6500,Migrate,Kentucky,http://www.hathornautosofkentucky.com,tl-190-jp-e0r5
339,Nealand Autos of Texas,214-626-5574,Houston,Texas,http://www.nealandautosoftexas.com,va-611-gs-6qns
340,Fremantle Autos of New York,718-356-7452,Staten Island,New York,http://www.fremantleautosofnewyork.com,qn-345-nq-qk72
341,Harder Autos of District of Columbia,202-899-0347,Washington,District of Columbia,http://www.harderautosofdistrictofcolumbia.com,kg-763-no-ojxz
342,Piddock Autos of New York,585-917-3483,Rochester,New York,http://www.piddockautosofnewyork.com,dc-431-kt-1chf
343,Aspey Autos of Texas,903-668-1564,Tyler,Texas,http://www.aspeyautosoftexas.com,ld-318-27-61wx
344,O'Keeffe Autos of Alabama,205-882-7220,Birmingham,Alabama,http://www.o'keeffeautosofalabama.com,iu-909-0m-rphd
345,Meek Autos of Texas,806-267-0033,Amarillo,Texas,http://www.meekautosoftexas.com,xz-851-08-s854
346,Matevushev Autos of Michigan,517-355-3111,Lansing,Michigan,http://www.matevushevautosofmichigan.com,wu-877-1p-aiin
347,Holdworth Autos of Indiana,765-847-0946,Crawfordsville,Indiana,http://www.holdworthautosofindiana.com,ys-986-o6-8sb1
348,Rodolfi Autos of Texas,512-248-7187,Austin,Texas,http://www.rodolfiautosoftexas.com,th-274-4m-vtae
349,Mackieson Autos of Missouri,816-209-8018,Kansas City,Missouri,http://www.mackiesonautosofmissouri.com,el-849-3d-3jh1
350,Stourton Autos of New Jersey,551-292-0333,Jersey City,New Jersey,http://www.stourtonautosofnewjersey.com,bk-379-u9-lg4c
351,Cantera Autos of Texas,210-625-8694,San Antonio,Texas,http://www.canteraautosoftexas.com,dg-692-ga-gv6v
352,Downe Autos of California,310-244-0470,Santa Monica,California,http://www.downeautosofcalifornia.com,ym-388-wd-0qt2
353,Deare Autos of Missouri,314-594-4430,Saint Louis,Missouri,http://www.deareautosofmissouri.com,re-583-s4-adax
354,Doorbar Autos of Texas,915-566-8286,El Paso,Texas,http://www.doorbarautosoftexas.com,oh-661-91-cmtx
355,Leyband Autos of South Carolina,803-796-9622,Columbia,South Carolina,http://www.leybandautosofsouthcarolina.com,qz-584-sd-a3hc
356,Dayly Autos of Illinois,312-777-6376,Chicago,Illinois,http://www.daylyautosofillinois.com,ei-714-nd-1j99
357,Cownden Autos of Tennessee,615-483-0570,Nashville,Tennessee,http://www.cowndenautosoftennessee.com,ux-118-uh-vysn
358,Toor Autos of Wisconsin,414-331-2234,Milwaukee,Wisconsin,http://www.toorautosofwisconsin.com,vi-160-9k-lrjh
359,Gaylard Autos of New York,646-593-8560,New York City,New York,http://www.gaylardautosofnewyork.com,dd-526-wm-4otq
360,Grimes Autos of Wisconsin,608-442-8590,Madison,Wisconsin,http://www.grimesautosofwisconsin.com,pm-113-qu-wlec
361,Morriss Autos of Florida,305-690-3226,Miami,Florida,http://www.morrissautosofflorida.com,vl-722-h4-npe8
362,Yeoland Autos of Texas,979-472-7362,Bryan,Texas,http://www.yeolandautosoftexas.com,bb-120-9f-sk5s
363,Iacobetto Autos of New York,347-855-6953,New York City,New York,http://www.iacobettoautosofnewyork.com,jf-865-1w-3q1x
364,Somerscales Autos of Massachusetts,508-824-2411,Worcester,Massachusetts,http://www.somerscalesautosofmassachusetts.com,jt-991-x6-ss0x
365,Trevance Autos of Michigan,313-862-9312,Detroit,Michigan,http://www.trevanceautosofmichigan.com,nz-424-zi-tjvi
366,Pawels Autos of California,916-643-6469,Sacramento,California,http://www.pawelsautosofcalifornia.com,ei-312-qu-9psv
367,Meekin Autos of District of Columbia,202-722-1051,Washington,District of Columbia,http://www.meekinautosofdistrictofcolumbia.com,py-032-pz-07f5
368,Belfelt Autos of California,415-112-7605,San Francisco,California,http://www.belfeltautosofcalifornia.com,pm-459-ol-r23q
369,Warn Autos of California,559-775-1178,Fresno,California,http://www.warnautosofcalifornia.com,yg-785-76-isdr
370,Roxbee Autos of Florida,850-901-1309,Panama City,Florida,http://www.roxbeeautosofflorida.com,ie-592-jm-o78m
371,Gillbe Autos of Georgia,229-255-0366,Albany,Georgia,http://www.gillbeautosofgeorgia.com,dc-991-ok-xh1q
372,Cansfield Autos of Virginia,804-143-5250,Richmond,Virginia,http://www.cansfieldautosofvirginia.com,wh-821-sa-u2pc
373,Tidman Autos of Texas,806-374-9732,Amarillo,Texas,http://www.tidmanautosoftexas.com,rq-519-mg-ixew
374,Kervin Autos of Massachusetts,508-832-4391,Brockton,Massachusetts,http://www.kervinautosofmassachusetts.com,xh-691-yb-kwvd
375,Woodvine Autos of Ohio,614-456-7121,Columbus,Ohio,http://www.woodvineautosofohio.com,ac-783-1q-s8lv
376,Yushkov Autos of Oklahoma,918-936-4814,Tulsa,Oklahoma,http://www.yushkovautosofoklahoma.com,nn-781-x9-wd7a
377,Brock Autos of California,661-704-5082,Palmdale,California,http://www.brockautosofcalifornia.com,qh-440-cr-4mjl
378,Kilban Autos of Louisiana,504-932-5763,New Orleans,Louisiana,http://www.kilbanautosoflouisiana.com,ug-432-mz-hjst
379,Pedican Autos of North Carolina,704-863-9843,Charlotte,North Carolina,http://www.pedicanautosofnorthcarolina.com,ah-064-p7-wtiz
380,Geekie Autos of California,916-479-1542,Sacramento,California,http://www.geekieautosofcalifornia.com,nd-542-rk-n47f
381,Marages Autos of Ohio,614-732-7131,Columbus,Ohio,http://www.maragesautosofohio.com,kt-112-3x-voy1
382,Praill Autos of Indiana,812-170-9085,Bloomington,Indiana,http://www.praillautosofindiana.com,xc-098-9m-h4ju
383,Mallindine Autos of New York,516-917-6557,Hicksville,New York,http://www.mallindineautosofnewyork.com,io-243-07-5n5a
384,Babar Autos of Minnesota,763-616-8772,Minneapolis,Minnesota,http://www.babarautosofminnesota.com,ba-192-np-quve
385,Brasier Autos of California,951-299-2465,Moreno Valley,California,http://www.brasierautosofcalifornia.com,oi-730-hm-t8ya
386,Algore Autos of New York,518-918-1592,Albany,New York,http://www.algoreautosofnewyork.com,wp-396-y8-qk7l
387,Izkovici Autos of Missouri,816-641-0438,Kansas City,Missouri,http://www.izkoviciautosofmissouri.com,rp-186-xv-jav7
388,Crathern Autos of California,310-876-5807,Inglewood,California,http://www.crathernautosofcalifornia.com,ia-766-z8-f407
389,Buxsy Autos of New York,212-662-2466,New York City,New York,http://www.buxsyautosofnewyork.com,bd-072-b0-z0lf
390,Gaddie Autos of Nevada,702-965-2014,Las Vegas,Nevada,http://www.gaddieautosofnevada.com,dq-901-q1-4c4e
391,Fantini Autos of Utah,801-757-3688,Salt Lake City,Utah,http://www.fantiniautosofutah.com,ay-681-ws-tq1i
392,Pentecost Autos of New York,518-472-6954,Albany,New York,http://www.pentecostautosofnewyork.com,hl-421-ey-9vvw
393,Gronav Autos of Alabama,205-520-2567,Birmingham,Alabama,http://www.gronavautosofalabama.com,cb-963-oc-lu2k
394,Grzegorek Autos of California,707-440-2037,Petaluma,California,http://www.grzegorekautosofcalifornia.com,qy-174-64-eche
395,Antonetti Autos of Colorado,303-458-1536,Boulder,Colorado,http://www.antonettiautosofcolorado.com,bi-463-uq-2ub4
396,Lansdale Autos of New Mexico,505-640-1437,Santa Fe,New Mexico,http://www.lansdaleautosofnewmexico.com,wm-255-vw-7h2f
397,Kidd Autos of New York,917-837-6163,New York City,New York,http://www.kiddautosofnewyork.com,gd-559-2f-lcm2
398,Tofanini Autos of Utah,801-960-8062,Sandy,Utah,http://www.tofaniniautosofutah.com,uy-017-x5-h99t
399,Hartly Autos of Colorado,303-561-1282,Boulder,Colorado,http://www.hartlyautosofcolorado.com,bq-527-hc-umat
400,Schutter Autos of Florida,772-947-6594,Vero Beach,Florida,http://www.schutterautosofflorida.com,hb-095-ag-5ig4
401,Allchorne Autos of Florida,727-413-2185,Clearwater,Florida,http://www.allchorneautosofflorida.com,sq-936-7l-2640
402,Tedstone Autos of California,408-741-2780,San Jose,California,http://www.tedstoneautosofcalifornia.com,pw-937-wv-8d30
403,Thomlinson Autos of New York,212-528-4968,Jamaica,New York,http://www.thomlinsonautosofnewyork.com,mr-969-eb-4vii
404,Moulsdall Autos of Massachusetts,857-402-4628,Newton,Massachusetts,http://www.moulsdallautosofmassachusetts.com,se-357-mn-0p66
405,Dilliston Autos of Massachusetts,781-968-6996,Cambridge,Massachusetts,http://www.dillistonautosofmassachusetts.com,cm-484-4m-299q
406,Baughan Autos of Iowa,319-348-9536,Cedar Rapids,Iowa,http://www.baughanautosofiowa.com,wk-073-ra-dp5u
407,Wolfers Autos of Ohio,513-338-3175,Cincinnati,Ohio,http://www.wolfersautosofohio.com,kv-453-3g-nfs7
408,Worledge Autos of Indiana,574-101-5168,South Bend,Indiana,http://www.worledgeautosofindiana.com,hs-029-7h-qmri
409,Utridge Autos of Maryland,301-862-2615,Silver Spring,Maryland,http://www.utridgeautosofmaryland.com,ru-983-mm-x7k7
410,Longrigg Autos of California,916-105-8195,Chico,California,http://www.longriggautosofcalifornia.com,sc-076-nw-ebaw
411,Jancar Autos of Texas,972-666-9811,Dallas,Texas,http://www.jancarautosoftexas.com,fu-127-h1-aoxy
412,Ganforthe Autos of Colorado,719-409-6074,Colorado Springs,Colorado,http://www.ganfortheautosofcolorado.com,dm-838-15-md4j
413,Breawood Autos of Texas,915-312-2983,El Paso,Texas,http://www.breawoodautosoftexas.com,jg-397-h0-srgs
414,Ladbrook Autos of Georgia,404-533-7301,Lawrenceville,Georgia,http://www.ladbrookautosofgeorgia.com,jv-928-26-shcu
415,Grimes Autos of Tennessee,901-708-2901,Memphis,Tennessee,http://www.grimesautosoftennessee.com,ju-852-lm-wqr4
416,Spearett Autos of California,818-712-7827,Glendale,California,http://www.spearettautosofcalifornia.com,vx-114-ay-zbn3
417,Cleall Autos of Florida,904-312-0697,Jacksonville,Florida,http://www.cleallautosofflorida.com,ib-398-2a-m96j
418,Romayne Autos of Oklahoma,405-800-8199,Oklahoma City,Oklahoma,http://www.romayneautosofoklahoma.com,eo-963-qo-nd8o
419,Dedden Autos of Ohio,937-220-3175,Dayton,Ohio,http://www.deddenautosofohio.com,yc-906-cy-bx2j
420,Meharg Autos of Hawaii,808-207-5068,Honolulu,Hawaii,http://www.mehargautosofhawaii.com,ov-338-i2-eft1
421,Bruton Autos of Kentucky,502-384-7725,Frankfort,Kentucky,http://www.brutonautosofkentucky.com,wx-641-6r-8au3
422,Haskew Autos of Florida,305-952-2634,Miami,Florida,http://www.haskewautosofflorida.com,ei-116-11-cxdq
423,Gregersen Autos of Illinois,815-722-3767,Joliet,Illinois,http://www.gregersenautosofillinois.com,jw-531-fr-f5ux
424,Dodgshon Autos of Texas,713-285-8532,Houston,Texas,http://www.dodgshonautosoftexas.com,qy-944-68-52hg
425,Szreter Autos of Indiana,765-723-5730,Crawfordsville,Indiana,http://www.szreterautosofindiana.com,cq-424-95-qbnv
426,Orriss Autos of Missouri,816-263-7185,Kansas City,Missouri,http://www.orrissautosofmissouri.com,sl-968-5b-fit6
427,Colby Autos of New Hampshire,603-256-3199,Portsmouth,New Hampshire,http://www.colbyautosofnewhampshire.com,sz-562-69-6r4i
428,Dufton Autos of Connecticut,203-593-0269,Waterbury,Connecticut,http://www.duftonautosofconnecticut.com,kf-143-gy-4mbl
429,Sapsford Autos of Texas,214-907-9599,Dallas,Texas,http://www.sapsfordautosoftexas.com,df-214-nw-wuml
430,Frenchum Autos of District of Columbia,202-255-1315,Washington,District of Columbia,http://www.frenchumautosofdistrictofcolumbia.com,eg-996-1v-vr3g
431,Kilbane Autos of Florida,954-547-0771,Fort Lauderdale,Florida,http://www.kilbaneautosofflorida.com,bg-019-x9-eiqu
432,Hardcastle Autos of Indiana,574-622-5595,South Bend,Indiana,http://www.hardcastleautosofindiana.com,gy-382-r1-q3sn
433,Tesmond Autos of Oklahoma,918-576-7490,Tulsa,Oklahoma,http://www.tesmondautosofoklahoma.com,is-696-y5-m971
434,Burdas Autos of Kentucky,859-384-1298,Lexington,Kentucky,http://www.burdasautosofkentucky.com,go-269-o8-85fv
435,Skyner Autos of California,562-271-9750,Long Beach,California,http://www.skynerautosofcalifornia.com,iu-934-x7-xzcr
436,Sauniere Autos of Florida,305-191-5456,Miami,Florida,http://www.sauniereautosofflorida.com,yp-009-iq-redg
437,Hane Autos of Missouri,314-176-6133,Saint Louis,Missouri,http://www.haneautosofmissouri.com,td-089-zj-tlxq
438,Poles Autos of Georgia,478-242-8220,Macon,Georgia,http://www.polesautosofgeorgia.com,hz-677-74-syba
439,Spellsworth Autos of Arizona,602-714-4574,Phoenix,Arizona,http://www.spellsworthautosofarizona.com,kt-226-77-csrp
440,Rawdall Autos of Texas,806-228-6331,Lubbock,Texas,http://www.rawdallautosoftexas.com,ak-514-2n-vwf5
441,Ruddiman Autos of Arkansas,501-947-9189,Little Rock,Arkansas,http://www.ruddimanautosofarkansas.com,wa-577-ud-9mx3
442,Duckels Autos of New York,585-941-0324,Rochester,New York,http://www.duckelsautosofnewyork.com,ur-866-2g-slai
443,Kiss Autos of Florida,786-783-9270,Miami,Florida,http://www.kissautosofflorida.com,zu-128-jp-y4h9
444,Ligertwood Autos of Arizona,480-875-2230,Phoenix,Arizona,http://www.ligertwoodautosofarizona.com,ag-692-8g-vvbe
445,Baggallay Autos of Iowa,319-195-8743,Cedar Rapids,Iowa,http://www.baggallayautosofiowa.com,bz-877-d6-q1tg
446,Nevison Autos of Washington,425-421-0378,Seattle,Washington,http://www.nevisonautosofwashington.com,ts-016-1k-63nb
447,Zuenelli Autos of Wisconsin,414-152-8568,Milwaukee,Wisconsin,http://www.zuenelliautosofwisconsin.com,kv-418-j8-l837
448,Haberjam Autos of Texas,806-838-3575,Amarillo,Texas,http://www.haberjamautosoftexas.com,is-557-kw-fhuq
449,Byrne Autos of California,209-815-4562,Fresno,California,http://www.byrneautosofcalifornia.com,se-922-pp-5300
450,Edney Autos of Florida,954-513-0303,Pompano Beach,Florida,http://www.edneyautosofflorida.com,fq-967-hx-uk5q
451,Backler Autos of California,562-728-7822,Long Beach,California,http://www.backlerautosofcalifornia.com,ps-466-87-4d6l
452,Mattei Autos of Georgia,706-438-9667,Columbus,Georgia,http://www.matteiautosofgeorgia.com,mg-907-ba-8y7t
453,Heakey Autos of Massachusetts,339-857-1100,Lynn,Massachusetts,http://www.heakeyautosofmassachusetts.com,mj-408-r1-tayw
454,Cicculi Autos of Utah,801-185-1542,Salt Lake City,Utah,http://www.cicculiautosofutah.com,sp-205-5l-8run
455,Linguard Autos of New York,718-262-8187,Brooklyn,New York,http://www.linguardautosofnewyork.com,eb-104-2k-pfa3
456,Winton Autos of Florida,813-856-9572,Tampa,Florida,http://www.wintonautosofflorida.com,kn-035-gn-mfpb
457,Sextone Autos of California,619-679-9830,San Diego,California,http://www.sextoneautosofcalifornia.com,iy-656-66-tm6z
458,Davison Autos of California,805-896-4250,Santa Barbara,California,http://www.davisonautosofcalifornia.com,rd-952-ep-5guu
459,Currin Autos of Oklahoma,405-755-4231,Norman,Oklahoma,http://www.currinautosofoklahoma.com,bg-747-j8-o4c0
460,Richley Autos of New York,315-934-5027,Syracuse,New York,http://www.richleyautosofnewyork.com,rg-185-m7-ii1e
461,Boig Autos of Wisconsin,608-434-6239,Madison,Wisconsin,http://www.boigautosofwisconsin.com,gm-514-cb-gqjc
462,Lamming Autos of Indiana,260-799-7147,Fort Wayne,Indiana,http://www.lammingautosofindiana.com,sb-191-cp-bn9d
463,Fines Autos of New York,212-380-6619,New York City,New York,http://www.finesautosofnewyork.com,hr-246-k2-z5v2
464,Wyrall Autos of Washington,360-150-4364,Seattle,Washington,http://www.wyrallautosofwashington.com,zl-397-ow-lfdl
465,Moff Autos of Illinois,630-217-2090,Chicago,Illinois,http://www.moffautosofillinois.com,ds-807-2m-c0zt
466,Beverstock Autos of Washington,509-512-2884,Spokane,Washington,http://www.beverstockautosofwashington.com,yd-253-wd-y14i
467,Churn Autos of California,559-853-8125,Fresno,California,http://www.churnautosofcalifornia.com,sd-450-3p-v3ij
468,Ivankin Autos of California,408-895-4924,San Jose,California,http://www.ivankinautosofcalifornia.com,pm-798-hn-fgmr
469,Ockendon Autos of Kentucky,859-946-6069,Lexington,Kentucky,http://www.ockendonautosofkentucky.com,mx-572-v1-3un5
470,Stothart Autos of North Carolina,704-119-6072,Charlotte,North Carolina,http://www.stothartautosofnorthcarolina.com,pp-959-in-h00u
471,Okenden Autos of Pennsylvania,215-265-6694,Philadelphia,Pennsylvania,http://www.okendenautosofpennsylvania.com,yi-114-v9-jxau
472,Snassell Autos of Florida,813-916-4322,Tampa,Florida,http://www.snassellautosofflorida.com,qs-385-h9-gjwg
473,Jacomb Autos of Texas,832-982-2511,Houston,Texas,http://www.jacombautosoftexas.com,ep-735-6w-loxt
474,Otham Autos of Colorado,303-239-9605,Denver,Colorado,http://www.othamautosofcolorado.com,dq-287-s0-y89l
475,Gingell Autos of New York,917-221-5755,New York City,New York,http://www.gingellautosofnewyork.com,vi-100-zg-fd21
476,Witsey Autos of Florida,786-867-9169,Hialeah,Florida,http://www.witseyautosofflorida.com,na-447-tm-smzq
477,Whitehorn Autos of California,310-207-2836,Van Nuys,California,http://www.whitehornautosofcalifornia.com,fk-351-bq-wl30
478,Jenkin Autos of Wyoming,307-378-8612,Cheyenne,Wyoming,http://www.jenkinautosofwyoming.com,ac-943-wp-jqsd
479,Shilstone Autos of Colorado,303-936-5171,Denver,Colorado,http://www.shilstoneautosofcolorado.com,ot-423-2c-wp7j
480,Levet Autos of Ohio,937-401-9484,Dayton,Ohio,http://www.levetautosofohio.com,sz-458-wb-e4g9
481,Lassetter Autos of Pennsylvania,215-538-5209,Philadelphia,Pennsylvania,http://www.lassetterautosofpennsylvania.com,da-452-vb-pr4u
482,Pauncefort Autos of Indiana,260-723-4380,Fort Wayne,Indiana,http://www.pauncefortautosofindiana.com,oz-817-9n-646i
483,Daniaud Autos of New York,718-804-0294,Brooklyn,New York,http://www.daniaudautosofnewyork.com,sf-367-dx-shaj
484,Henrique Autos of Colorado,720-173-4950,Boulder,Colorado,http://www.henriqueautosofcolorado.com,km-497-yu-32uy
485,Rottery Autos of Arizona,602-698-4226,Phoenix,Arizona,http://www.rotteryautosofarizona.com,je-788-wp-636d
486,Meace Autos of Tennessee,615-265-6454,Murfreesboro,Tennessee,http://www.meaceautosoftennessee.com,cc-739-5j-nmqu
487,Whitten Autos of Minnesota,763-733-3735,Maple Plain,Minnesota,http://www.whittenautosofminnesota.com,hm-852-am-tfhc
488,Minto Autos of Minnesota,651-591-5200,Minneapolis,Minnesota,http://www.mintoautosofminnesota.com,uf-822-84-izot
489,Melladew Autos of Connecticut,860-299-5362,Hartford,Connecticut,http://www.melladewautosofconnecticut.com,vc-755-i7-elqa
490,Welchman Autos of Iowa,515-548-6977,Des Moines,Iowa,http://www.welchmanautosofiowa.com,lw-983-v2-ab2f
491,Dorey Autos of Colorado,970-184-4878,Greeley,Colorado,http://www.doreyautosofcolorado.com,uv-057-74-cxez
492,Cristoforo Autos of New Jersey,908-815-1683,Jersey City,New Jersey,http://www.cristoforoautosofnewjersey.com,fz-055-2g-4r6h
493,Pickavance Autos of Arkansas,479-511-7531,Fort Smith,Arkansas,http://www.pickavanceautosofarkansas.com,dy-255-rm-eql2
494,Ilchuk Autos of Nevada,702-798-9720,Las Vegas,Nevada,http://www.ilchukautosofnevada.com,mu-316-u4-n8fz
495,Breazeall Autos of District of Columbia,202-436-1778,Washington,District of Columbia,http://www.breazeallautosofdistrictofcolumbia.com,mx-906-t2-jzx4
496,Montilla Autos of California,562-240-2787,Long Beach,California,http://www.montillaautosofcalifornia.com,rw-792-pz-vvl3
497,Castelletti Autos of Florida,863-984-2894,Winter Haven,Florida,http://www.castellettiautosofflorida.com,oq-428-m5-66tr
498,Giraldo Autos of New York,212-540-1730,New York City,New York,http://www.giraldoautosofnewyork.com,he-689-8o-zzy7
499,Kingsly Autos of West Virginia,304-745-4683,Huntington,West Virginia,http://www.kingslyautosofwestvirginia.com,rf-791-sn-1qv8
500,McKeveney Autos of Virginia,757-638-5859,Virginia Beach,Virginia,http://www.mckeveneyautosofvirginia.com,tf-096-ob-f3h5
501,Bowdler Autos of California,619-592-5441,San Diego,California,http://www.bowdlerautosofcalifornia.com,wh-940-gi-irqe
502,Simnell Autos of Minnesota,218-778-6092,Duluth,Minnesota,http://www.simnellautosofminnesota.com,gf-858-c7-nglh
503,Beggini Autos of Kentucky,502-816-7617,Louisville,Kentucky,http://www.begginiautosofkentucky.com,ho-433-81-8axb
504,de Wilde Autos of California,951-323-3116,Riverside,California,http://www.dewildeautosofcalifornia.com,az-478-9n-48td
505,Stemson Autos of Georgia,706-224-7156,Columbus,Georgia,http://www.stemsonautosofgeorgia.com,ab-564-zz-dbkr
506,Kaine Autos of Missouri,816-435-5634,Kansas City,Missouri,http://www.kaineautosofmissouri.com,ml-677-rm-nf2k
507,Dinwoodie Autos of Texas,512-132-3972,Austin,Texas,http://www.dinwoodieautosoftexas.com,nn-134-to-rxtt
508,Ridgeway Autos of Florida,904-162-0866,Jacksonville,Florida,http://www.ridgewayautosofflorida.com,zb-553-mv-macl
509,Gullberg Autos of California,916-224-7236,Sacramento,California,http://www.gullbergautosofcalifornia.com,ak-740-zk-z1xp
510,O'Kelly Autos of Ohio,937-390-6482,Dayton,Ohio,http://www.o'kellyautosofohio.com,xz-903-vb-vl0t
511,Splain Autos of Nevada,775-663-9259,Carson City,Nevada,http://www.splainautosofnevada.com,ko-021-h7-z8zd
512,Bradly Autos of South Carolina,843-391-9587,Charleston,South Carolina,http://www.bradlyautosofsouthcarolina.com,gd-398-ph-9m0f
513,Jendrach Autos of Texas,713-675-6093,Houston,Texas,http://www.jendrachautosoftexas.com,ch-763-h5-qurh
514,Strutton Autos of Illinois,312-250-9313,Chicago,Illinois,http://www.struttonautosofillinois.com,wg-523-8s-2ola
515,Burdass Autos of Illinois,217-945-0668,Springfield,Illinois,http://www.burdassautosofillinois.com,ew-694-ww-dqoo
516,Bentjens Autos of Texas,915-494-3634,El Paso,Texas,http://www.bentjensautosoftexas.com,jp-236-ng-vvec
517,Kohneke Autos of Minnesota,218-912-9247,Duluth,Minnesota,http://www.kohnekeautosofminnesota.com,wx-409-s4-irsr
518,Eustice Autos of Michigan,989-729-2268,Saginaw,Michigan,http://www.eusticeautosofmichigan.com,cv-695-cq-zbtg
519,Pantone Autos of District of Columbia,202-979-9065,Washington,District of Columbia,http://www.pantoneautosofdistrictofcolumbia.com,rd-877-cd-29s1
520,Sapp Autos of Colorado,720-279-6129,Denver,Colorado,http://www.sappautosofcolorado.com,qh-078-cf-7i1q
521,Beaten Autos of Tennessee,615-744-4711,Nashville,Tennessee,http://www.beatenautosoftennessee.com,nu-974-tq-ubiw
522,Skillington Autos of California,661-869-1984,Bakersfield,California,http://www.skillingtonautosofcalifornia.com,zg-985-be-j2v1
523,Brise Autos of Minnesota,651-691-3955,Saint Paul,Minnesota,http://www.briseautosofminnesota.com,zw-952-uh-yiwo
524,Beachem Autos of Alabama,205-712-0154,Birmingham,Alabama,http://www.beachemautosofalabama.com,wp-671-9w-1wq6
525,Atcherley Autos of Texas,210-302-1351,San Antonio,Texas,http://www.atcherleyautosoftexas.com,km-764-r2-gtiv
526,Huish Autos of Arizona,602-484-0084,Glendale,Arizona,http://www.huishautosofarizona.com,qj-258-db-en75
527,Tanswell Autos of Indiana,812-637-6271,Terre Haute,Indiana,http://www.tanswellautosofindiana.com,qw-602-yz-r7hz
528,Jebb Autos of California,831-540-8908,Santa Cruz,California,http://www.jebbautosofcalifornia.com,hs-369-uj-pv1p
529,Durram Autos of Washington,360-904-3071,Vancouver,Washington,http://www.durramautosofwashington.com,zg-349-vr-ag9t
530,Hedger Autos of Colorado,303-696-1640,Littleton,Colorado,http://www.hedgerautosofcolorado.com,ry-220-ad-br0a
531,Allington Autos of Texas,432-719-7105,Midland,Texas,http://www.allingtonautosoftexas.com,fz-901-to-bouy
532,Wildman Autos of Virginia,757-857-6173,Portsmouth,Virginia,http://www.wildmanautosofvirginia.com,fo-489-5w-navv
533,Philpots Autos of Massachusetts,774-325-4787,Worcester,Massachusetts,http://www.philpotsautosofmassachusetts.com,qm-103-8f-8ke6
534,Uccello Autos of Pennsylvania,215-845-8037,Philadelphia,Pennsylvania,http://www.uccelloautosofpennsylvania.com,kq-413-79-37i0
535,O'Neill Autos of Kansas,913-423-9204,Shawnee Mission,Kansas,http://www.o'neillautosofkansas.com,yr-552-14-0nci
536,Ondrich Autos of Minnesota,763-951-3093,Monticello,Minnesota,http://www.ondrichautosofminnesota.com,eh-023-gb-spta
537,Willmont Autos of Illinois,217-291-2973,Springfield,Illinois,http://www.willmontautosofillinois.com,mj-126-qa-tq1o
538,Gooddy Autos of Connecticut,203-764-6238,Norwalk,Connecticut,http://www.gooddyautosofconnecticut.com,lj-249-p2-3z6k
539,Squeers Autos of California,559-698-5971,Fullerton,California,http://www.squeersautosofcalifornia.com,ce-221-n9-pys7
540,Balogun Autos of Oklahoma,405-626-9169,Oklahoma City,Oklahoma,http://www.balogunautosofoklahoma.com,yq-997-ws-pd7l
541,Lorek Autos of Texas,254-851-0369,Killeen,Texas,http://www.lorekautosoftexas.com,mp-988-wp-fupc
542,Puzey Autos of Illinois,217-166-0388,Springfield,Illinois,http://www.puzeyautosofillinois.com,lp-330-ju-sqo4
543,Loram Autos of Virginia,804-426-7819,Richmond,Virginia,http://www.loramautosofvirginia.com,eh-153-s4-28nx
544,Balwin Autos of Texas,281-333-9690,Houston,Texas,http://www.balwinautosoftexas.com,xd-509-sp-s1ti
545,Becom Autos of Texas,713-309-8735,Houston,Texas,http://www.becomautosoftexas.com,xm-203-bp-388t
546,Beacon Autos of Pennsylvania,215-444-6861,Philadelphia,Pennsylvania,http://www.beaconautosofpennsylvania.com,rl-754-4b-u1m3
547,Vasenin Autos of Texas,210-307-9814,San Antonio,Texas,http://www.vaseninautosoftexas.com,yy-744-zy-5ygw
548,Gurden Autos of Nevada,775-243-1779,Reno,Nevada,http://www.gurdenautosofnevada.com,dg-251-ay-acrr
549,Leopard Autos of Virginia,571-648-1576,Arlington,Virginia,http://www.leopardautosofvirginia.com,jl-507-0p-sv9d
550,Layhe Autos of Nevada,775-183-6754,Reno,Nevada,http://www.layheautosofnevada.com,ll-332-sv-pe68
551,McMeekan Autos of Texas,806-596-3313,Amarillo,Texas,http://www.mcmeekanautosoftexas.com,nd-075-w6-1a95
552,Tomasek Autos of Florida,850-382-0061,Pensacola,Florida,http://www.tomasekautosofflorida.com,yf-226-zy-wjb1
553,Ackrill Autos of Florida,786-901-4337,Miami,Florida,http://www.ackrillautosofflorida.com,py-918-a0-jk6y
554,Streatfeild Autos of Alaska,907-600-7667,Anchorage,Alaska,http://www.streatfeildautosofalaska.com,td-895-8g-xpeu
555,Salack Autos of Texas,915-694-9447,El Paso,Texas,http://www.salackautosoftexas.com,zw-783-kx-6b8r
556,Dufour Autos of Oklahoma,405-963-8423,Oklahoma City,Oklahoma,http://www.dufourautosofoklahoma.com,ss-695-24-mede
557,Ruck Autos of Virginia,804-833-6412,Richmond,Virginia,http://www.ruckautosofvirginia.com,db-699-fy-y8w0
558,Boissier Autos of Florida,305-208-0804,Miami,Florida,http://www.boissierautosofflorida.com,wl-978-r6-munn
559,Hazeldene Autos of Louisiana,337-151-4797,Lake Charles,Louisiana,http://www.hazeldeneautosoflouisiana.com,up-970-jl-qo9v
560,Almack Autos of Ohio,513-314-6874,Cincinnati,Ohio,http://www.almackautosofohio.com,wi-808-nf-n0a8
561,Tal Autos of Iowa,319-196-7073,Cedar Rapids,Iowa,http://www.talautosofiowa.com,ri-999-vf-q9ko
562,Cruce Autos of California,310-681-0590,Palo Alto,California,http://www.cruceautosofcalifornia.com,nf-207-1k-jaat
563,Matteuzzi Autos of New York,716-349-3780,Buffalo,New York,http://www.matteuzziautosofnewyork.com,cr-256-1r-p2wf
564,Chislett Autos of Minnesota,612-469-3489,Minneapolis,Minnesota,http://www.chislettautosofminnesota.com,tt-450-ep-kgkm
565,Headly Autos of California,619-951-9633,San Diego,California,http://www.headlyautosofcalifornia.com,so-989-16-7m3i
566,Cockton Autos of Iowa,515-521-4901,Des Moines,Iowa,http://www.cocktonautosofiowa.com,jr-076-np-2ynq
567,Burgill Autos of Arizona,623-363-1380,Phoenix,Arizona,http://www.burgillautosofarizona.com,zy-609-3k-e8fo
568,Guilloton Autos of Nevada,702-368-2150,Las Vegas,Nevada,http://www.guillotonautosofnevada.com,ip-519-6h-lybz
569,Spera Autos of Florida,786-413-3592,Miami,Florida,http://www.speraautosofflorida.com,gv-132-fq-jih4
570,Degg Autos of Kentucky,502-773-4024,Louisville,Kentucky,http://www.deggautosofkentucky.com,xt-346-bj-vzjf
571,Burgiss Autos of Alabama,205-958-9049,Birmingham,Alabama,http://www.burgissautosofalabama.com,vh-657-tn-f7na
572,Franies Autos of Washington,253-776-0366,Tacoma,Washington,http://www.franiesautosofwashington.com,rt-772-g9-71xt
573,Iddenden Autos of Georgia,678-947-1976,Atlanta,Georgia,http://www.iddendenautosofgeorgia.com,av-742-09-s5v8
574,Greenhough Autos of Oklahoma,918-887-2725,Tulsa,Oklahoma,http://www.greenhoughautosofoklahoma.com,xg-027-2n-lw8e
575,M'Quharge Autos of West Virginia,304-409-8972,Charleston,West Virginia,http://www.m'quhargeautosofwestvirginia.com,ya-299-yp-wlyi
576,Gerleit Autos of Colorado,303-525-1867,Denver,Colorado,http://www.gerleitautosofcolorado.com,mq-681-q1-4xz3
577,Elnough Autos of Illinois,217-823-6323,Springfield,Illinois,http://www.elnoughautosofillinois.com,ex-302-nv-zq5j
578,Truluck Autos of Texas,817-626-4600,Fort Worth,Texas,http://www.truluckautosoftexas.com,iv-789-sr-e3h2
579,Van Dalen Autos of Pennsylvania,215-821-9665,Philadelphia,Pennsylvania,http://www.vandalenautosofpennsylvania.com,ni-181-zj-aurc
580,Redihough Autos of Washington,509-256-7066,Spokane,Washington,http://www.redihoughautosofwashington.com,wg-970-w9-dx9c
581,Danilchenko Autos of California,619-209-0512,San Diego,California,http://www.danilchenkoautosofcalifornia.com,ho-219-dn-nv67
582,La Padula Autos of California,818-273-7618,Burbank,California,http://www.lapadulaautosofcalifornia.com,vm-268-wo-ge33
583,Laste Autos of Tennessee,423-246-8134,Johnson City,Tennessee,http://www.lasteautosoftennessee.com,ur-257-xn-96wc
584,Guidetti Autos of California,415-305-6821,San Francisco,California,http://www.guidettiautosofcalifornia.com,vx-541-d7-r5gz
585,Ulyet Autos of California,559-164-1482,Fresno,California,http://www.ulyetautosofcalifornia.com,dm-915-7z-xux3
586,Vasyutochkin Autos of New York,518-303-3267,Albany,New York,http://www.vasyutochkinautosofnewyork.com,wh-599-gp-e7u6
587,Van der Brugge Autos of North Carolina,336-742-9977,Greensboro,North Carolina,http://www.vanderbruggeautosofnorthcarolina.com,vn-841-kf-coxv
588,Pearlman Autos of Kansas,913-381-7970,Shawnee Mission,Kansas,http://www.pearlmanautosofkansas.com,ik-886-ty-uuqc
589,Garett Autos of Texas,210-250-6465,San Antonio,Texas,http://www.garettautosoftexas.com,ze-692-tb-2uvx
590,Kingwell Autos of District of Columbia,202-965-1395,Washington,District of Columbia,http://www.kingwellautosofdistrictofcolumbia.com,vd-379-of-0dxx
591,Mateescu Autos of District of Columbia,202-970-7099,Washington,District of Columbia,http://www.mateescuautosofdistrictofcolumbia.com,bc-597-8r-5ho9
592,Vick Autos of Texas,469-374-2297,Plano,Texas,http://www.vickautosoftexas.com,ut-530-33-uojd
593,Ballay Autos of Missouri,314-652-5135,Saint Louis,Missouri,http://www.ballayautosofmissouri.com,fh-332-g8-dunt
594,Nutbrown Autos of North Carolina,828-656-7104,Asheville,North Carolina,http://www.nutbrownautosofnorthcarolina.com,uj-816-uk-62yu
595,Lowater Autos of California,916-261-9498,Sacramento,California,http://www.lowaterautosofcalifornia.com,df-199-jq-3kcz
596,Colbourne Autos of Michigan,313-325-3459,Detroit,Michigan,http://www.colbourneautosofmichigan.com,xk-444-hc-lnmp
597,Plows Autos of Louisiana,225-984-7895,Baton Rouge,Louisiana,http://www.plowsautosoflouisiana.com,vi-730-62-8g2p
598,Antonelli Autos of Colorado,720-792-3156,Aurora,Colorado,http://www.antonelliautosofcolorado.com,lh-067-i9-neq6
599,Horsted Autos of North Dakota,701-937-3809,Grand Forks,North Dakota,http://www.horstedautosofnorthdakota.com,wg-981-qi-191y
600,Ravenscraft Autos of Maryland,410-510-2187,Baltimore,Maryland,http://www.ravenscraftautosofmaryland.com,dp-961-i1-1gxc
601,Boyle Autos of Wisconsin,414-200-4852,Milwaukee,Wisconsin,http://www.boyleautosofwisconsin.com,uu-469-6d-o7eu
602,Skillern Autos of Kentucky,502-268-8270,Frankfort,Kentucky,http://www.skillernautosofkentucky.com,qt-538-v1-9e7f
603,Chittenden Autos of Texas,713-361-7552,Houston,Texas,http://www.chittendenautosoftexas.com,nh-617-w5-r2p4
604,Canadine Autos of Texas,214-690-4286,Plano,Texas,http://www.canadineautosoftexas.com,ku-603-1v-nc4i
605,Rickaby Autos of New Hampshire,603-644-0920,Portsmouth,New Hampshire,http://www.rickabyautosofnewhampshire.com,jb-258-3j-ywgl
606,Grant Autos of New Jersey,609-993-7896,Trenton,New Jersey,http://www.grantautosofnewjersey.com,mi-287-hk-1bqm
607,Stripling Autos of Virginia,540-230-5709,Roanoke,Virginia,http://www.striplingautosofvirginia.com,li-555-3w-3e6z
608,Kenyon Autos of Nevada,775-741-0534,Reno,Nevada,http://www.kenyonautosofnevada.com,cn-747-go-0r4m
609,Blyde Autos of Kentucky,859-400-5067,Lexington,Kentucky,http://www.blydeautosofkentucky.com,oq-262-0w-5miz
610,Hubback Autos of Florida,941-264-8154,Sarasota,Florida,http://www.hubbackautosofflorida.com,yp-695-xr-s7rn
611,Kingcott Autos of Illinois,312-989-8557,Chicago,Illinois,http://www.kingcottautosofillinois.com,ue-242-yq-ykni
612,Villaret Autos of Georgia,404-999-8628,Atlanta,Georgia,http://www.villaretautosofgeorgia.com,kv-986-gm-z0j7
613,Brind Autos of Georgia,706-122-1764,Cumming,Georgia,http://www.brindautosofgeorgia.com,jt-271-hn-akoi
614,Dooman Autos of Ohio,330-344-7840,Akron,Ohio,http://www.doomanautosofohio.com,eg-112-26-xzzm
615,Tuffley Autos of Nevada,775-911-5291,Carson City,Nevada,http://www.tuffleyautosofnevada.com,rh-291-8e-pjma
616,Ponder Autos of North Carolina,336-675-1257,Greensboro,North Carolina,http://www.ponderautosofnorthcarolina.com,vy-197-zd-cqb7
617,Khomin Autos of New Mexico,505-599-2302,Albuquerque,New Mexico,http://www.khominautosofnewmexico.com,xn-995-hu-3gij
618,Antrim Autos of California,562-971-5050,Long Beach,California,http://www.antrimautosofcalifornia.com,ft-420-b3-4apb
619,Upsale Autos of Alabama,334-341-0002,Montgomery,Alabama,http://www.upsaleautosofalabama.com,sx-942-zj-30be
620,Hawson Autos of Alabama,334-797-1686,Birmingham,Alabama,http://www.hawsonautosofalabama.com,ka-426-ab-a991
621,Theze Autos of Kentucky,502-517-0050,Louisville,Kentucky,http://www.thezeautosofkentucky.com,jw-998-oc-pcz3
622,Pettingill Autos of Florida,850-355-6507,Pensacola,Florida,http://www.pettingillautosofflorida.com,bu-691-ex-hxgd
623,Robinett Autos of California,562-656-4263,Long Beach,California,http://www.robinettautosofcalifornia.com,po-235-ev-xxcx
624,Cawsy Autos of Washington,509-269-1717,Spokane,Washington,http://www.cawsyautosofwashington.com,ic-963-it-8knf
625,Dalrymple Autos of Florida,561-648-7085,Boynton Beach,Florida,http://www.dalrympleautosofflorida.com,tl-137-hp-givf
626,Abade Autos of Kansas,913-778-1964,Shawnee Mission,Kansas,http://www.abadeautosofkansas.com,zf-195-cc-zpzq
627,Tripe Autos of Kansas,913-875-6733,Shawnee Mission,Kansas,http://www.tripeautosofkansas.com,ha-302-p2-znfn
628,Wooff Autos of Texas,915-262-3946,El Paso,Texas,http://www.wooffautosoftexas.com,dn-025-fl-pl7x
629,Richly Autos of Florida,786-133-1996,Miami,Florida,http://www.richlyautosofflorida.com,er-181-38-2o6l
630,Giovanizio Autos of Missouri,314-440-6803,Saint Louis,Missouri,http://www.giovanizioautosofmissouri.com,fw-785-6c-clxl
631,Dashper Autos of District of Columbia,202-110-8430,Washington,District of Columbia,http://www.dashperautosofdistrictofcolumbia.com,lg-001-7c-drxc
632,Snelman Autos of California,562-227-8083,Whittier,California,http://www.snelmanautosofcalifornia.com,nh-328-q3-qdkh
633,Monni Autos of Iowa,319-139-2306,Cedar Rapids,Iowa,http://www.monniautosofiowa.com,kk-917-dt-4vz1
634,Roskeilly Autos of Ohio,419-829-1351,Toledo,Ohio,http://www.roskeillyautosofohio.com,fe-539-6s-f8i5
635,Deniso Autos of Texas,915-172-0439,El Paso,Texas,http://www.denisoautosoftexas.com,ko-413-8p-2iae
636,Decent Autos of Texas,432-945-6913,Odessa,Texas,http://www.decentautosoftexas.com,qm-291-1b-5cpl
637,Reckus Autos of Massachusetts,857-155-0115,Boston,Massachusetts,http://www.reckusautosofmassachusetts.com,vc-456-rt-1emd
638,Growcott Autos of Michigan,810-321-2851,Flint,Michigan,http://www.growcottautosofmichigan.com,vf-512-pb-scoh
639,Germon Autos of Texas,806-407-1359,Amarillo,Texas,http://www.germonautosoftexas.com,dw-729-75-2lcp
640,Rames Autos of Texas,806-654-4880,Lubbock,Texas,http://www.ramesautosoftexas.com,kl-747-x7-95io
641,Euels Autos of New York,914-219-7454,Mount Vernon,New York,http://www.euelsautosofnewyork.com,ve-345-y3-hmqr
642,Danjoie Autos of California,714-972-5489,Fullerton,California,http://www.danjoieautosofcalifornia.com,na-429-0n-qai2
643,Cissen Autos of Kansas,785-592-0675,Topeka,Kansas,http://www.cissenautosofkansas.com,il-042-cb-w1py
644,McNiff Autos of Mississippi,228-369-2910,Biloxi,Mississippi,http://www.mcniffautosofmississippi.com,kp-584-kz-zchp
645,Wayon Autos of Wisconsin,608-271-2680,Madison,Wisconsin,http://www.wayonautosofwisconsin.com,bp-417-qy-1x7a
646,Doneld Autos of Illinois,847-821-9867,Chicago,Illinois,http://www.doneldautosofillinois.com,rd-502-wk-j3ea
647,Allbut Autos of Ohio,937-866-2998,Dayton,Ohio,http://www.allbutautosofohio.com,tv-207-pt-utm3
648,Eglaise Autos of Florida,407-744-1541,Orlando,Florida,http://www.eglaiseautosofflorida.com,ek-376-4p-qoju
649,Whenman Autos of Missouri,816-924-6722,Kansas City,Missouri,http://www.whenmanautosofmissouri.com,lq-413-46-9kgl
650,Resun Autos of Florida,561-204-6388,Boca Raton,Florida,http://www.resunautosofflorida.com,ss-702-5e-2yka
651,Reburn Autos of Indiana,812-471-4636,Evansville,Indiana,http://www.reburnautosofindiana.com,zp-890-p6-keaq
652,Kennicott Autos of District of Columbia,202-102-5834,Washington,District of Columbia,http://www.kennicottautosofdistrictofcolumbia.com,nd-233-0d-tu4a
653,McKeag Autos of Missouri,816-532-0430,Kansas City,Missouri,http://www.mckeagautosofmissouri.com,ao-104-sk-b9b0
654,Stouther Autos of Indiana,574-160-8958,South Bend,Indiana,http://www.stoutherautosofindiana.com,mc-238-1y-4j69
655,O'Tierney Autos of Virginia,804-267-4237,Richmond,Virginia,http://www.o'tierneyautosofvirginia.com,hu-759-bj-1cez
656,Spieght Autos of Ohio,614-820-0897,Columbus,Ohio,http://www.spieghtautosofohio.com,li-823-1i-cbc5
657,Bloxsom Autos of Connecticut,203-396-8287,Fairfield,Connecticut,http://www.bloxsomautosofconnecticut.com,xc-322-ua-y2ld
658,Iglesias Autos of Minnesota,507-513-8552,Rochester,Minnesota,http://www.iglesiasautosofminnesota.com,qw-990-zp-5xi7
659,Ovendon Autos of Connecticut,203-486-5103,Danbury,Connecticut,http://www.ovendonautosofconnecticut.com,bs-388-y6-xb6e
660,Perrygo Autos of Arizona,520-966-5345,Tucson,Arizona,http://www.perrygoautosofarizona.com,ut-179-gv-owbs
661,DeSousa Autos of California,858-280-1772,San Francisco,California,http://www.desousaautosofcalifornia.com,rp-516-ve-3334
662,Rentenbeck Autos of West Virginia,304-874-4520,Huntington,West Virginia,http://www.rentenbeckautosofwestvirginia.com,do-944-1g-6xnn
663,Stopforth Autos of District of Columbia,202-309-8967,Washington,District of Columbia,http://www.stopforthautosofdistrictofcolumbia.com,aq-735-kb-48h9
664,Sawrey Autos of Missouri,573-289-8705,Columbia,Missouri,http://www.sawreyautosofmissouri.com,au-446-qg-cqb0
665,Cleaves Autos of Indiana,260-446-9651,Fort Wayne,Indiana,http://www.cleavesautosofindiana.com,be-341-lc-ki0m
666,Gianiello Autos of Oklahoma,405-613-0712,Oklahoma City,Oklahoma,http://www.gianielloautosofoklahoma.com,qx-459-dp-wux4
667,Itshak Autos of California,661-251-1974,Burbank,California,http://www.itshakautosofcalifornia.com,ef-274-yz-uah1
668,Hardstaff Autos of Alabama,205-765-1266,Birmingham,Alabama,http://www.hardstaffautosofalabama.com,nr-895-vg-7cod
669,Normanell Autos of Virginia,571-305-9633,Springfield,Virginia,http://www.normanellautosofvirginia.com,qg-119-jd-f2qs
670,McCay Autos of North Carolina,336-633-0452,Winston Salem,North Carolina,http://www.mccayautosofnorthcarolina.com,xe-939-t7-qczp
671,Jandac Autos of New York,718-790-9836,Staten Island,New York,http://www.jandacautosofnewyork.com,lt-073-60-4yru
672,Sweetmore Autos of Arizona,520-130-0537,Tucson,Arizona,http://www.sweetmoreautosofarizona.com,ru-487-x3-2jt2
673,Darton Autos of Utah,801-747-8340,Ogden,Utah,http://www.dartonautosofutah.com,sl-729-jf-xb8a
674,Padmore Autos of Kentucky,502-747-7906,Louisville,Kentucky,http://www.padmoreautosofkentucky.com,mc-974-nr-41c5
675,Tourville Autos of Texas,972-654-1432,Plano,Texas,http://www.tourvilleautosoftexas.com,kb-492-qn-oe8m
676,Simonelli Autos of Indiana,812-675-6221,Evansville,Indiana,http://www.simonelliautosofindiana.com,vz-485-2b-u8k2
677,Haswall Autos of Texas,432-763-0181,Odessa,Texas,http://www.haswallautosoftexas.com,lt-801-au-g3jm
678,Churcher Autos of Oklahoma,405-982-6511,Oklahoma City,Oklahoma,http://www.churcherautosofoklahoma.com,ue-712-49-0pe1
679,Tapping Autos of New Jersey,609-485-8675,Trenton,New Jersey,http://www.tappingautosofnewjersey.com,db-473-i9-qguq
680,O'Keaveny Autos of Texas,817-101-0451,Fort Worth,Texas,http://www.o'keavenyautosoftexas.com,dg-192-k8-4l70
681,Vairow Autos of New York,212-142-2583,New York City,New York,http://www.vairowautosofnewyork.com,ar-788-84-klrt
682,McMechan Autos of New York,718-384-5684,Bronx,New York,http://www.mcmechanautosofnewyork.com,qs-992-6s-uz85
683,Oakenfull Autos of Minnesota,763-524-9836,Monticello,Minnesota,http://www.oakenfullautosofminnesota.com,vf-655-gi-fz2u
684,Pahl Autos of New Hampshire,603-700-7659,Portsmouth,New Hampshire,http://www.pahlautosofnewhampshire.com,zc-254-d4-2idn
685,Bootell Autos of Louisiana,225-420-5887,Baton Rouge,Louisiana,http://www.bootellautosoflouisiana.com,lx-584-xd-amkc
686,Nibloe Autos of South Carolina,864-327-1180,Spartanburg,South Carolina,http://www.nibloeautosofsouthcarolina.com,jv-249-3k-oktq
687,Tumpane Autos of Texas,469-978-3350,Dallas,Texas,http://www.tumpaneautosoftexas.com,bf-831-w3-gmb1
688,Trime Autos of New York,716-538-7326,Buffalo,New York,http://www.trimeautosofnewyork.com,cw-621-hj-z8cv
689,Bate Autos of Utah,801-229-1475,Salt Lake City,Utah,http://www.bateautosofutah.com,im-621-lr-sxgv
690,Ingarfill Autos of Kansas,785-862-5283,Topeka,Kansas,http://www.ingarfillautosofkansas.com,ar-338-cb-zp98
691,McLemon Autos of Ohio,513-856-5160,Cincinnati,Ohio,http://www.mclemonautosofohio.com,os-070-g0-roiu
692,Bissill Autos of Massachusetts,413-970-0221,Springfield,Massachusetts,http://www.bissillautosofmassachusetts.com,xe-351-d1-ah3i
693,Mandre Autos of District of Columbia,202-541-1935,Washington,District of Columbia,http://www.mandreautosofdistrictofcolumbia.com,pz-374-ie-0uvm
694,Hedlestone Autos of Utah,801-491-5006,Salt Lake City,Utah,http://www.hedlestoneautosofutah.com,wt-561-dj-7vpd
695,Janssen Autos of Ohio,234-881-7462,Canton,Ohio,http://www.janssenautosofohio.com,gd-256-it-o9e2
696,Chantree Autos of Iowa,515-934-0842,Des Moines,Iowa,http://www.chantreeautosofiowa.com,ct-744-yp-y8rr
697,Djokovic Autos of Ohio,330-156-1294,Youngstown,Ohio,http://www.djokovicautosofohio.com,tl-615-rk-pdox
698,Fibbens Autos of Georgia,404-339-5604,Atlanta,Georgia,http://www.fibbensautosofgeorgia.com,lp-864-95-2opk
699,Haithwaite Autos of Georgia,770-362-3591,Alpharetta,Georgia,http://www.haithwaiteautosofgeorgia.com,fg-548-kz-ut9e
700,Sculpher Autos of Oregon,503-612-8721,Portland,Oregon,http://www.sculpherautosoforegon.com,pl-885-lh-kqtq
701,Kee Autos of Florida,239-126-9793,Naples,Florida,http://www.keeautosofflorida.com,gm-804-dd-aqa4
702,Hairs Autos of Texas,512-998-7286,Austin,Texas,http://www.hairsautosoftexas.com,zi-283-8h-cmni
703,Greenlees Autos of Texas,972-701-0123,Dallas,Texas,http://www.greenleesautosoftexas.com,we-162-o8-rqpo
704,Tiltman Autos of Maryland,410-100-9776,Baltimore,Maryland,http://www.tiltmanautosofmaryland.com,qq-710-a5-6bhb
705,Starkey Autos of Massachusetts,781-944-7113,Lynn,Massachusetts,http://www.starkeyautosofmassachusetts.com,nb-551-30-vjzo
706,Slesser Autos of Texas,214-377-5859,Dallas,Texas,http://www.slesserautosoftexas.com,vz-942-fe-pm3f
707,Woolfitt Autos of California,714-253-3235,Irvine,California,http://www.woolfittautosofcalifornia.com,bo-702-1f-xoih
708,Fernan Autos of Kansas,785-137-1092,Topeka,Kansas,http://www.fernanautosofkansas.com,yq-233-01-e7g0
709,Bertomieu Autos of Alabama,205-475-6062,Birmingham,Alabama,http://www.bertomieuautosofalabama.com,ra-609-fa-rikr
710,Tweede Autos of Ohio,330-289-5245,Canton,Ohio,http://www.tweedeautosofohio.com,qf-589-eu-9y7p
711,Omand Autos of New York,718-135-8237,Staten Island,New York,http://www.omandautosofnewyork.com,ik-501-ux-k35j
712,Orvis Autos of Texas,214-820-6351,Dallas,Texas,http://www.orvisautosoftexas.com,cq-047-l4-wxnp
713,Maloney Autos of Oklahoma,405-985-8607,Oklahoma City,Oklahoma,http://www.maloneyautosofoklahoma.com,ge-000-ob-8aw2
714,Fice Autos of District of Columbia,202-616-5286,Washington,District of Columbia,http://www.ficeautosofdistrictofcolumbia.com,ss-062-3f-veiu
715,Renzullo Autos of Colorado,719-687-7419,Colorado Springs,Colorado,http://www.renzulloautosofcolorado.com,lp-795-kk-812p
716,Ferrara Autos of New Jersey,973-227-7939,Newark,New Jersey,http://www.ferraraautosofnewjersey.com,qr-325-di-hybn
717,Ellerman Autos of Ohio,419-373-8958,Lima,Ohio,http://www.ellermanautosofohio.com,me-113-66-bj2x
718,Addyman Autos of Illinois,312-608-7213,Chicago,Illinois,http://www.addymanautosofillinois.com,uj-723-x0-a1og
719,Hodge Autos of South Carolina,864-953-9043,Greenville,South Carolina,http://www.hodgeautosofsouthcarolina.com,yh-840-uk-4zuw
720,Barfoot Autos of Texas,806-258-2145,Amarillo,Texas,http://www.barfootautosoftexas.com,xi-706-on-6qiw
721,Clemits Autos of Florida,239-565-6253,Cape Coral,Florida,http://www.clemitsautosofflorida.com,vo-563-wi-0azs
722,Elstone Autos of Florida,850-662-3160,Pensacola,Florida,http://www.elstoneautosofflorida.com,on-284-4u-5dwa
723,Ohrtmann Autos of Texas,817-774-0918,Fort Worth,Texas,http://www.ohrtmannautosoftexas.com,jy-098-in-3gw4
724,Artus Autos of Maryland,410-748-0319,Baltimore,Maryland,http://www.artusautosofmaryland.com,yh-179-lg-k09q
725,Statersfield Autos of California,213-985-8776,Los Angeles,California,http://www.statersfieldautosofcalifornia.com,lr-547-e3-sryy
726,Jacobsz Autos of Minnesota,612-242-7915,Saint Paul,Minnesota,http://www.jacobszautosofminnesota.com,du-012-ry-7nih
727,Haithwaite Autos of Texas,214-292-8496,Dallas,Texas,http://www.haithwaiteautosoftexas.com,il-457-dx-a2fv
728,Klees Autos of Illinois,217-761-7057,Springfield,Illinois,http://www.kleesautosofillinois.com,ac-395-9c-3ny0
729,Garaway Autos of Indiana,812-984-0785,Evansville,Indiana,http://www.garawayautosofindiana.com,of-205-84-1gof
730,Arnaudon Autos of Texas,214-604-7544,Dallas,Texas,http://www.arnaudonautosoftexas.com,gp-279-af-px7l
731,Baden Autos of Texas,915-403-0766,El Paso,Texas,http://www.badenautosoftexas.com,rw-889-6a-yjfo
732,Thatcher Autos of Missouri,816-830-2926,Kansas City,Missouri,http://www.thatcherautosofmissouri.com,nr-688-od-uu73
733,Kinavan Autos of California,559-983-5228,Fresno,California,http://www.kinavanautosofcalifornia.com,ty-795-kn-qerl
734,Tomkiss Autos of California,714-586-5341,Santa Ana,California,http://www.tomkissautosofcalifornia.com,qx-947-c0-c6lr
735,Guildford Autos of Florida,727-459-9962,Saint Petersburg,Florida,http://www.guildfordautosofflorida.com,iw-548-eb-8kt5
736,Naire Autos of South Carolina,803-410-6574,Columbia,South Carolina,http://www.naireautosofsouthcarolina.com,ky-969-ni-ijv4
737,Benech Autos of Texas,972-790-5696,Mesquite,Texas,http://www.benechautosoftexas.com,na-506-wh-iuro
738,Bowe Autos of Virginia,804-927-6458,Richmond,Virginia,http://www.boweautosofvirginia.com,fo-674-0g-fpq4
739,Worster Autos of Michigan,517-651-4056,Lansing,Michigan,http://www.worsterautosofmichigan.com,xb-124-pn-jtk1
740,Windrass Autos of Arizona,520-967-6113,Tucson,Arizona,http://www.windrassautosofarizona.com,de-452-it-evhd
741,McKiddin Autos of Wisconsin,608-557-0963,Madison,Wisconsin,http://www.mckiddinautosofwisconsin.com,lq-581-fe-ez09
742,Marqyes Autos of Alabama,334-321-5599,Montgomery,Alabama,http://www.marqyesautosofalabama.com,nm-607-jf-qe66
743,Hughman Autos of Alaska,907-150-0826,Anchorage,Alaska,http://www.hughmanautosofalaska.com,xx-344-jy-khv9
744,Peizer Autos of California,510-615-6811,Berkeley,California,http://www.peizerautosofcalifornia.com,qu-232-o3-bdzy
745,Harpham Autos of Texas,325-721-3503,Abilene,Texas,http://www.harphamautosoftexas.com,jb-612-n6-hfq6
746,Appleford Autos of Florida,786-175-7649,Miami,Florida,http://www.applefordautosofflorida.com,ln-397-8z-dhu4
747,Latus Autos of North Carolina,336-913-4134,Winston Salem,North Carolina,http://www.latusautosofnorthcarolina.com,ka-319-ow-htbb
748,Veljes Autos of Ohio,513-816-7630,Cincinnati,Ohio,http://www.veljesautosofohio.com,tp-802-4k-jn3l
749,Branigan Autos of Utah,435-152-9335,Salt Lake City,Utah,http://www.braniganautosofutah.com,fv-834-1f-p40b
750,Kirstein Autos of Maryland,410-649-6761,Baltimore,Maryland,http://www.kirsteinautosofmaryland.com,nb-030-3x-zwlu
751,Itzcak Autos of New York,914-532-3040,White Plains,New York,http://www.itzcakautosofnewyork.com,to-436-rm-ch0a
752,Pettisall Autos of California,562-114-0106,Long Beach,California,http://www.pettisallautosofcalifornia.com,wv-976-u9-dg9e
753,Ruslinge Autos of Maryland,410-537-6973,Baltimore,Maryland,http://www.ruslingeautosofmaryland.com,nz-582-7t-bfr8
754,Raddin Autos of Florida,754-256-9420,Fort Lauderdale,Florida,http://www.raddinautosofflorida.com,ax-381-kp-l4m5
755,Quinnet Autos of California,805-882-0537,Simi Valley,California,http://www.quinnetautosofcalifornia.com,pw-114-8e-y4qf
756,Jansa Autos of Arizona,602-294-8449,Phoenix,Arizona,http://www.jansaautosofarizona.com,oj-199-ab-gcim
757,Leefe Autos of Tennessee,865-471-2386,Knoxville,Tennessee,http://www.leefeautosoftennessee.com,av-953-hh-mswg
758,Bysh Autos of Texas,432-531-2145,Midland,Texas,http://www.byshautosoftexas.com,lj-118-52-73dw
759,Keely Autos of North Carolina,919-318-1408,Durham,North Carolina,http://www.keelyautosofnorthcarolina.com,ll-920-fl-98yx
760,Grimbleby Autos of Oklahoma,405-890-1069,Oklahoma City,Oklahoma,http://www.grimblebyautosofoklahoma.com,qg-585-ge-favi
761,Ramsell Autos of Michigan,586-394-3185,Detroit,Michigan,http://www.ramsellautosofmichigan.com,jl-654-86-sc6p
762,Tebald Autos of Connecticut,860-734-9741,Hartford,Connecticut,http://www.tebaldautosofconnecticut.com,uc-752-kz-rm6h
763,Bockman Autos of South Carolina,864-170-8743,Spartanburg,South Carolina,http://www.bockmanautosofsouthcarolina.com,tf-663-bb-dio4
764,Coppock. Autos of Wisconsin,414-902-8449,Milwaukee,Wisconsin,http://www.coppock.autosofwisconsin.com,ly-975-nr-p3ez
765,Elwyn Autos of Utah,801-578-1137,Salt Lake City,Utah,http://www.elwynautosofutah.com,hx-552-ry-mwi3
766,Carek Autos of Texas,214-813-6906,Irving,Texas,http://www.carekautosoftexas.com,hl-288-xj-t35m
767,Corney Autos of Montana,406-311-1645,Bozeman,Montana,http://www.corneyautosofmontana.com,si-214-it-5yvw
768,Costan Autos of Texas,713-546-5507,Houston,Texas,http://www.costanautosoftexas.com,nz-727-rf-zk1q
769,Harkess Autos of Alabama,256-632-9492,Anniston,Alabama,http://www.harkessautosofalabama.com,zd-098-z3-60nd
770,Antonich Autos of Florida,561-746-8226,West Palm Beach,Florida,http://www.antonichautosofflorida.com,gj-478-lu-vxoo
771,Durnill Autos of New York,646-727-2553,Brooklyn,New York,http://www.durnillautosofnewyork.com,wo-685-tr-dpj9
772,Abramino Autos of California,310-679-8983,Los Angeles,California,http://www.abraminoautosofcalifornia.com,zv-872-dh-qux0
773,Shingles Autos of Pennsylvania,412-967-1175,Pittsburgh,Pennsylvania,http://www.shinglesautosofpennsylvania.com,cz-843-q1-txr7
774,Suart Autos of Pennsylvania,267-398-0694,Philadelphia,Pennsylvania,http://www.suartautosofpennsylvania.com,ap-787-4p-wftw
775,Janusz Autos of New York,347-650-3564,New York City,New York,http://www.januszautosofnewyork.com,xf-345-u6-ffta
776,Emms Autos of Ohio,216-546-7787,Cleveland,Ohio,http://www.emmsautosofohio.com,vp-972-yr-glwa
777,Pearsey Autos of Pennsylvania,215-910-1591,Philadelphia,Pennsylvania,http://www.pearseyautosofpennsylvania.com,gc-038-ub-8lz7
778,Glanton Autos of South Carolina,803-767-6017,Columbia,South Carolina,http://www.glantonautosofsouthcarolina.com,lt-566-m6-m9uu
779,Toxell Autos of California,626-499-8035,Pasadena,California,http://www.toxellautosofcalifornia.com,rn-492-r5-81cy
780,Willmett Autos of Arizona,602-210-2063,Glendale,Arizona,http://www.willmettautosofarizona.com,cu-943-wp-tz7i
781,Fearick Autos of Alabama,205-756-0499,Birmingham,Alabama,http://www.fearickautosofalabama.com,oy-377-24-szqp
782,Schiementz Autos of Minnesota,218-708-4220,Duluth,Minnesota,http://www.schiementzautosofminnesota.com,ig-839-mt-owym
783,Curgenuer Autos of Alabama,205-522-2658,Birmingham,Alabama,http://www.curgenuerautosofalabama.com,dp-590-go-swod
784,Jackett Autos of Indiana,260-957-5165,Fort Wayne,Indiana,http://www.jackettautosofindiana.com,zf-591-z8-lrxo
785,Pooke Autos of North Carolina,919-350-7531,Raleigh,North Carolina,http://www.pookeautosofnorthcarolina.com,ru-131-6t-utav
786,Stinton Autos of Texas,915-841-3925,El Paso,Texas,http://www.stintonautosoftexas.com,ty-656-sm-u6kb
787,Cattermull Autos of Louisiana,337-304-3579,Lafayette,Louisiana,http://www.cattermullautosoflouisiana.com,bq-017-nj-2848
788,Rettie Autos of Louisiana,225-274-5932,Baton Rouge,Louisiana,http://www.rettieautosoflouisiana.com,wo-556-tp-fa24
789,Shard Autos of Michigan,313-670-3639,Detroit,Michigan,http://www.shardautosofmichigan.com,cs-811-kz-401x
790,Edgerley Autos of Oklahoma,405-913-1378,Oklahoma City,Oklahoma,http://www.edgerleyautosofoklahoma.com,hg-171-jv-ymkw
791,Attwell Autos of Texas,469-156-3796,Dallas,Texas,http://www.attwellautosoftexas.com,ir-619-4l-gpsp
792,Bingle Autos of Nebraska,402-116-8874,Lincoln,Nebraska,http://www.bingleautosofnebraska.com,wf-913-ux-br5t
793,Pert Autos of California,408-172-3904,San Jose,California,http://www.pertautosofcalifornia.com,hd-667-qc-dwok
794,Commings Autos of Illinois,312-864-2785,Chicago,Illinois,http://www.commingsautosofillinois.com,iz-717-gl-ctfi
795,Josh Autos of Texas,713-294-7530,Houston,Texas,http://www.joshautosoftexas.com,cb-634-ql-aail
796,Benge Autos of Washington,206-764-9433,Bellevue,Washington,http://www.bengeautosofwashington.com,zb-506-k8-uwhs
797,Ciabatteri Autos of Oklahoma,918-905-5421,Tulsa,Oklahoma,http://www.ciabatteriautosofoklahoma.com,ab-611-p2-f0ny
798,Farlane Autos of Virginia,540-895-6104,Roanoke,Virginia,http://www.farlaneautosofvirginia.com,lr-115-w0-l2mj
799,Rennox Autos of Virginia,434-260-1329,Lynchburg,Virginia,http://www.rennoxautosofvirginia.com,gn-604-kn-oyfa
800,Flye Autos of District of Columbia,202-609-5689,Washington,District of Columbia,http://www.flyeautosofdistrictofcolumbia.com,hj-591-dn-14yk
801,Maskell Autos of Texas,682-984-2327,Fort Worth,Texas,http://www.maskellautosoftexas.com,pm-258-4h-9e1c
802,Haseley Autos of New York,518-654-4659,Albany,New York,http://www.haseleyautosofnewyork.com,fg-320-a2-zstx
803,France Autos of Virginia,757-357-8536,Newport News,Virginia,http://www.franceautosofvirginia.com,vw-237-gr-m7k8
804,Cruwys Autos of Indiana,260-392-4446,Fort Wayne,Indiana,http://www.cruwysautosofindiana.com,sg-927-kp-gyip
805,Fellos Autos of Minnesota,218-359-6267,Minneapolis,Minnesota,http://www.fellosautosofminnesota.com,ko-941-uz-0ymc
806,Sailes Autos of West Virginia,304-145-9141,Charleston,West Virginia,http://www.sailesautosofwestvirginia.com,tu-564-8y-hzjd
807,Long Autos of California,559-283-5110,Fresno,California,http://www.longautosofcalifornia.com,ee-391-2u-z7k4
808,Gresley Autos of Texas,915-935-0991,El Paso,Texas,http://www.gresleyautosoftexas.com,qa-272-8o-9h8p
809,Somerville Autos of Ohio,234-238-4840,Canton,Ohio,http://www.somervilleautosofohio.com,ub-020-w6-16oi
810,Maseres Autos of Texas,512-252-6240,Austin,Texas,http://www.maseresautosoftexas.com,pa-703-16-qdns
811,Furbank Autos of Ohio,216-363-1047,Cleveland,Ohio,http://www.furbankautosofohio.com,zg-795-qi-pwqr
812,Deery Autos of California,408-413-1008,San Jose,California,http://www.deeryautosofcalifornia.com,gl-981-sy-q7vn
813,Whyberd Autos of District of Columbia,202-397-9422,Washington,District of Columbia,http://www.whyberdautosofdistrictofcolumbia.com,kj-561-9m-cd3e
814,Hayhoe Autos of Michigan,517-641-6234,Lansing,Michigan,http://www.hayhoeautosofmichigan.com,rr-067-ik-7p8p
815,Teresa Autos of Nevada,702-263-5275,Henderson,Nevada,http://www.teresaautosofnevada.com,eh-753-oe-m7lh
816,De Bruijne Autos of Texas,432-206-5923,Midland,Texas,http://www.debruijneautosoftexas.com,iw-134-0y-0j3d
817,Spurriar Autos of North Carolina,336-385-4702,Winston Salem,North Carolina,http://www.spurriarautosofnorthcarolina.com,nw-758-p9-n6t1
818,Stutely Autos of Minnesota,612-279-2780,Minneapolis,Minnesota,http://www.stutelyautosofminnesota.com,lg-407-k8-qbc0
819,Genever Autos of Minnesota,763-374-0435,Monticello,Minnesota,http://www.geneverautosofminnesota.com,pd-852-jf-4ak2
820,Light Autos of Michigan,734-920-3819,Ann Arbor,Michigan,http://www.lightautosofmichigan.com,mu-558-4o-ewai
821,Barti Autos of Michigan,517-347-0818,Kalamazoo,Michigan,http://www.bartiautosofmichigan.com,pg-985-ln-tm3i
822,Woolam Autos of Oregon,503-505-1065,Portland,Oregon,http://www.woolamautosoforegon.com,ot-422-ln-m546
823,Timcke Autos of North Carolina,704-813-2040,Charlotte,North Carolina,http://www.timckeautosofnorthcarolina.com,uf-367-yc-rk9y
824,Toyer Autos of Michigan,517-575-6202,Lansing,Michigan,http://www.toyerautosofmichigan.com,mo-931-l1-q5l2
825,Pittendreigh Autos of North Carolina,336-862-6379,Greensboro,North Carolina,http://www.pittendreighautosofnorthcarolina.com,ur-773-sr-vsxz
826,Durnin Autos of Colorado,303-618-9121,Denver,Colorado,http://www.durninautosofcolorado.com,vl-581-qk-higl
827,Kemster Autos of New Jersey,609-273-9274,Trenton,New Jersey,http://www.kemsterautosofnewjersey.com,ct-282-mj-r34u
828,Ghidoli Autos of Alabama,256-725-5074,Huntsville,Alabama,http://www.ghidoliautosofalabama.com,yg-287-w5-087i
829,Cathcart Autos of New York,347-704-6163,Flushing,New York,http://www.cathcartautosofnewyork.com,vc-435-2m-80nk
830,Goade Autos of Colorado,719-664-0328,Pueblo,Colorado,http://www.goadeautosofcolorado.com,zz-403-xs-aupb
831,Lowne Autos of Pennsylvania,570-883-0094,Wilkes Barre,Pennsylvania,http://www.lowneautosofpennsylvania.com,wp-379-nz-65uc
832,Eastlake Autos of Connecticut,203-551-4712,Waterbury,Connecticut,http://www.eastlakeautosofconnecticut.com,qz-260-ya-kj0g
833,Le Jean Autos of Pennsylvania,215-631-9777,Philadelphia,Pennsylvania,http://www.lejeanautosofpennsylvania.com,sa-613-j1-cxmj
834,Dack Autos of Georgia,706-217-5236,Columbus,Georgia,http://www.dackautosofgeorgia.com,ml-685-s9-nq6b
835,Machans Autos of Tennessee,615-845-3423,Nashville,Tennessee,http://www.machansautosoftennessee.com,eb-824-dy-21ti
836,Lake Autos of Maryland,410-882-5823,Baltimore,Maryland,http://www.lakeautosofmaryland.com,ip-332-bi-jsod
837,Bess Autos of South Dakota,605-796-8024,Sioux Falls,South Dakota,http://www.bessautosofsouthdakota.com,ei-097-zq-dh0t
838,Gingold Autos of Oklahoma,918-870-1229,Tulsa,Oklahoma,http://www.gingoldautosofoklahoma.com,yh-966-v7-5mc7
839,Darycott Autos of Florida,786-182-3537,Miami,Florida,http://www.darycottautosofflorida.com,nt-339-xc-wi1e
840,Stobbart Autos of Texas,512-728-0445,Round Rock,Texas,http://www.stobbartautosoftexas.com,in-786-2w-ldcb
841,Meiner Autos of Minnesota,612-370-8769,Minneapolis,Minnesota,http://www.meinerautosofminnesota.com,zd-478-2i-ce0a
842,Moreman Autos of Louisiana,225-631-2074,Baton Rouge,Louisiana,http://www.moremanautosoflouisiana.com,mq-406-dy-8nk7
843,MacLennan Autos of Texas,915-312-7832,El Paso,Texas,http://www.maclennanautosoftexas.com,kt-317-q5-sw27
844,Firth Autos of New York,716-394-6455,Buffalo,New York,http://www.firthautosofnewyork.com,vg-049-ft-s1bi
845,Borges Autos of California,559-361-9886,Fresno,California,http://www.borgesautosofcalifornia.com,as-923-ro-uqpm
846,McSporon Autos of Florida,352-559-5218,Brooksville,Florida,http://www.mcsporonautosofflorida.com,cj-095-58-umqc
847,Avramov Autos of Texas,214-285-9690,Dallas,Texas,http://www.avramovautosoftexas.com,qf-081-be-cqc8
848,Vost Autos of Colorado,719-976-4366,Colorado Springs,Colorado,http://www.vostautosofcolorado.com,ho-779-qn-eznh
849,Zannelli Autos of Arizona,602-331-6600,Mesa,Arizona,http://www.zannelliautosofarizona.com,zd-363-c0-onis
850,Pawlaczyk Autos of Virginia,540-742-9212,Roanoke,Virginia,http://www.pawlaczykautosofvirginia.com,zo-960-yp-51o0
851,Mundy Autos of Oklahoma,405-641-2386,Oklahoma City,Oklahoma,http://www.mundyautosofoklahoma.com,ts-024-ih-lakn
852,Plumer Autos of New York,212-865-8100,New York City,New York,http://www.plumerautosofnewyork.com,if-376-53-3t1n
853,de Castelain Autos of Florida,904-449-1888,Jacksonville,Florida,http://www.decastelainautosofflorida.com,dv-922-aw-prvy
854,Euston Autos of Oklahoma,918-520-4610,Tulsa,Oklahoma,http://www.eustonautosofoklahoma.com,nr-674-jh-1lgw
855,Blacklidge Autos of Alabama,251-738-6577,Mobile,Alabama,http://www.blacklidgeautosofalabama.com,lq-123-xw-we7z
856,Rawdall Autos of Texas,817-106-9989,Arlington,Texas,http://www.rawdallautosoftexas.com,ym-305-ty-0lmh
857,Silvester Autos of California,213-105-7671,Los Angeles,California,http://www.silvesterautosofcalifornia.com,dm-094-oa-6tzh
858,Mariaud Autos of Texas,214-197-7995,Dallas,Texas,http://www.mariaudautosoftexas.com,eb-928-ih-2jea
859,Byham Autos of California,626-717-1666,Pasadena,California,http://www.byhamautosofcalifornia.com,he-117-49-od1h
860,Moens Autos of District of Columbia,202-445-5636,Washington,District of Columbia,http://www.moensautosofdistrictofcolumbia.com,bi-994-w0-qaww
861,Ewbach Autos of Texas,915-649-6215,El Paso,Texas,http://www.ewbachautosoftexas.com,zv-550-27-ib9g
862,De Lasci Autos of Alabama,251-652-7091,Mobile,Alabama,http://www.delasciautosofalabama.com,pj-213-k3-e9ev
863,Wilcott Autos of California,661-263-0702,Lancaster,California,http://www.wilcottautosofcalifornia.com,ud-500-qp-azuo
864,Alder Autos of Texas,361-746-1870,Austin,Texas,http://www.alderautosoftexas.com,iz-306-j7-vv4t
865,Halkyard Autos of Texas,361-755-4426,Corpus Christi,Texas,http://www.halkyardautosoftexas.com,sz-666-ji-4deg
866,Manjin Autos of Ohio,513-659-6991,Cincinnati,Ohio,http://www.manjinautosofohio.com,hi-539-75-wi46
867,Rubenchik Autos of New Jersey,973-787-6183,Jersey City,New Jersey,http://www.rubenchikautosofnewjersey.com,uh-360-ci-7j98
868,Clitherow Autos of New York,315-687-7641,Syracuse,New York,http://www.clitherowautosofnewyork.com,yw-879-um-b9gq
869,Alyukin Autos of Georgia,229-407-4798,Albany,Georgia,http://www.alyukinautosofgeorgia.com,si-131-y6-euyn
870,Lisamore Autos of New Mexico,505-283-1735,Las Cruces,New Mexico,http://www.lisamoreautosofnewmexico.com,ok-652-k1-o0sl
871,Millmoe Autos of Pennsylvania,215-748-6075,Philadelphia,Pennsylvania,http://www.millmoeautosofpennsylvania.com,zp-327-x2-2ntx
872,Rumbold Autos of Florida,941-827-2560,North Port,Florida,http://www.rumboldautosofflorida.com,uy-894-8g-jn04
873,Quantick Autos of Connecticut,203-459-7332,Bridgeport,Connecticut,http://www.quantickautosofconnecticut.com,mq-664-oz-a8w8
874,Haylor Autos of New York,212-912-3080,Jamaica,New York,http://www.haylorautosofnewyork.com,kh-226-tx-zwl1
875,Stallybrass Autos of Illinois,847-690-5677,Evanston,Illinois,http://www.stallybrassautosofillinois.com,lr-628-kq-w3fq
876,Pedder Autos of New York,718-863-1163,Staten Island,New York,http://www.pedderautosofnewyork.com,hs-915-r6-dghz
877,Wakeman Autos of Washington,360-802-0172,Olympia,Washington,http://www.wakemanautosofwashington.com,bd-518-rk-4ie0
878,Duncklee Autos of Massachusetts,413-284-7860,Springfield,Massachusetts,http://www.dunckleeautosofmassachusetts.com,nw-670-aq-bzo5
879,Dixon Autos of Texas,210-932-4675,San Antonio,Texas,http://www.dixonautosoftexas.com,wz-228-1x-zugf
880,Cicero Autos of Pennsylvania,484-712-4854,Valley Forge,Pennsylvania,http://www.ciceroautosofpennsylvania.com,nq-835-ac-en0y
881,Yanin Autos of Florida,386-899-6346,Daytona Beach,Florida,http://www.yaninautosofflorida.com,id-498-tc-fpld
882,Geggus Autos of California,714-726-2750,Garden Grove,California,http://www.geggusautosofcalifornia.com,rp-043-20-nptk
883,Lammert Autos of South Carolina,803-410-3199,Columbia,South Carolina,http://www.lammertautosofsouthcarolina.com,rn-052-td-6unc
884,Doidge Autos of Colorado,719-990-7619,Colorado Springs,Colorado,http://www.doidgeautosofcolorado.com,rw-302-2u-8dbw
885,Pixton Autos of Mississippi,601-710-3914,Jackson,Mississippi,http://www.pixtonautosofmississippi.com,jq-732-ru-ngb3
886,Loddy Autos of Pennsylvania,215-780-3666,Philadelphia,Pennsylvania,http://www.loddyautosofpennsylvania.com,jd-479-7u-l41t
887,Dickings Autos of Illinois,309-244-2158,Peoria,Illinois,http://www.dickingsautosofillinois.com,lv-774-qo-dtzj
888,Pourveer Autos of Ohio,513-546-6502,Cincinnati,Ohio,http://www.pourveerautosofohio.com,xi-165-o0-m7h4
889,Dericot Autos of Louisiana,318-951-2636,Shreveport,Louisiana,http://www.dericotautosoflouisiana.com,jr-637-ht-mwe5
890,McLeary Autos of Virginia,540-548-0142,Roanoke,Virginia,http://www.mclearyautosofvirginia.com,ju-008-xy-bmef
891,Nevett Autos of Arkansas,501-689-9279,Little Rock,Arkansas,http://www.nevettautosofarkansas.com,jk-107-hi-twsg
892,Rentalll Autos of Nevada,775-416-3632,Sparks,Nevada,http://www.rentalllautosofnevada.com,cq-898-vk-h47w
893,Handes Autos of New York,646-782-9046,New York City,New York,http://www.handesautosofnewyork.com,xn-748-5h-5gup
894,Luther Autos of New York,518-770-0420,Albany,New York,http://www.lutherautosofnewyork.com,pd-220-us-46bg
895,Kilshaw Autos of Florida,754-896-6115,Fort Lauderdale,Florida,http://www.kilshawautosofflorida.com,ob-668-bm-knai
896,Mayberry Autos of Alabama,205-735-9364,Tuscaloosa,Alabama,http://www.mayberryautosofalabama.com,dq-509-qk-281o
897,Yakuntzov Autos of Wisconsin,414-943-4642,Milwaukee,Wisconsin,http://www.yakuntzovautosofwisconsin.com,xt-002-7u-gi2f
898,Hurford Autos of California,559-976-5195,Visalia,California,http://www.hurfordautosofcalifornia.com,iz-079-gg-xjjd
899,Benettelli Autos of Missouri,816-806-7283,Kansas City,Missouri,http://www.benettelliautosofmissouri.com,ii-468-br-ek35
900,Lothlorien Autos of Iowa,319-550-8869,Iowa City,Iowa,http://www.lothlorienautosofiowa.com,zv-685-c4-6nud
901,Rivilis Autos of Texas,936-633-0968,Huntsville,Texas,http://www.rivilisautosoftexas.com,nl-703-x8-7swk
902,Loche Autos of Texas,682-809-6640,Fort Worth,Texas,http://www.locheautosoftexas.com,xj-102-r3-ggzd
903,Sallowaye Autos of New Jersey,732-846-1554,New Brunswick,New Jersey,http://www.sallowayeautosofnewjersey.com,ug-504-x7-6l5z
904,Pudsall Autos of Vermont,802-179-1855,Montpelier,Vermont,http://www.pudsallautosofvermont.com,ux-285-0p-pnkn
905,Buck Autos of Washington,509-103-3160,Spokane,Washington,http://www.buckautosofwashington.com,lb-041-ig-mnbl
906,Extill Autos of Kentucky,859-158-2140,Lexington,Kentucky,http://www.extillautosofkentucky.com,zi-113-lf-nuhy
907,Genge Autos of North Carolina,336-343-1420,High Point,North Carolina,http://www.gengeautosofnorthcarolina.com,mk-260-tu-44i7
908,Granham Autos of North Carolina,910-916-7549,Wilmington,North Carolina,http://www.granhamautosofnorthcarolina.com,db-120-j2-ft18
909,Munt Autos of Florida,850-139-7537,Tallahassee,Florida,http://www.muntautosofflorida.com,xc-668-ur-67k3
910,Somner Autos of Colorado,719-646-2321,Pueblo,Colorado,http://www.somnerautosofcolorado.com,jy-369-84-9wqh
911,Hussy Autos of Washington,509-783-6514,Spokane,Washington,http://www.hussyautosofwashington.com,hz-708-b7-x6uz
912,McRoberts Autos of Virginia,804-403-0211,Richmond,Virginia,http://www.mcrobertsautosofvirginia.com,jd-556-0h-kmx0
913,McNeilly Autos of California,805-839-8582,San Mateo,California,http://www.mcneillyautosofcalifornia.com,oi-740-kn-0ut4
914,Fanti Autos of Tennessee,423-652-1276,Johnson City,Tennessee,http://www.fantiautosoftennessee.com,ua-433-pw-s87c
915,Summerill Autos of Pennsylvania,814-926-1171,Erie,Pennsylvania,http://www.summerillautosofpennsylvania.com,xa-412-ix-ki48
916,Hebbard Autos of Florida,407-798-0947,Winter Haven,Florida,http://www.hebbardautosofflorida.com,dj-925-ob-xxfx
917,Tripean Autos of Oklahoma,405-373-0812,Oklahoma City,Oklahoma,http://www.tripeanautosofoklahoma.com,hc-126-am-fuq4
918,Placstone Autos of Georgia,678-574-4810,Marietta,Georgia,http://www.placstoneautosofgeorgia.com,iy-578-pv-02hd
919,Simonel Autos of Ohio,419-225-1647,Toledo,Ohio,http://www.simonelautosofohio.com,nr-985-0c-mrxj
920,Moneti Autos of Illinois,312-938-3969,Chicago,Illinois,http://www.monetiautosofillinois.com,ry-290-d9-5f55
921,Matiasek Autos of District of Columbia,202-167-4204,Washington,District of Columbia,http://www.matiasekautosofdistrictofcolumbia.com,wq-648-77-7l0k
922,Scarlett Autos of Georgia,706-335-5877,Columbus,Georgia,http://www.scarlettautosofgeorgia.com,xj-742-vv-7h5f
923,Batts Autos of Florida,786-834-7999,Miami,Florida,http://www.battsautosofflorida.com,oc-840-e1-kys7
924,Shellcross Autos of Nevada,702-711-3779,Las Vegas,Nevada,http://www.shellcrossautosofnevada.com,rg-896-g7-mkd1
925,Fossord Autos of North Carolina,704-968-1289,Charlotte,North Carolina,http://www.fossordautosofnorthcarolina.com,hj-131-es-qssp
926,Chennells Autos of New York,212-150-0957,New York City,New York,http://www.chennellsautosofnewyork.com,fe-157-ck-zpsz
927,Toffoloni Autos of California,209-297-7212,Visalia,California,http://www.toffoloniautosofcalifornia.com,ht-589-2y-t16j
928,Earngy Autos of Georgia,678-182-6660,Decatur,Georgia,http://www.earngyautosofgeorgia.com,fn-728-yw-fpdr
929,Oneill Autos of Utah,801-785-9598,Salt Lake City,Utah,http://www.oneillautosofutah.com,zg-535-jo-l8jt
930,Sagg Autos of Virginia,804-842-0811,Richmond,Virginia,http://www.saggautosofvirginia.com,ew-585-3n-eu7r
931,Syphus Autos of North Dakota,701-916-4975,Fargo,North Dakota,http://www.syphusautosofnorthdakota.com,vz-167-12-3kck
932,Farran Autos of California,661-269-9915,Bakersfield,California,http://www.farranautosofcalifornia.com,sj-275-7n-uvu6
933,Elcoux Autos of Illinois,309-913-1664,Carol Stream,Illinois,http://www.elcouxautosofillinois.com,qt-311-qp-1al9
934,De Bellis Autos of Florida,904-356-5596,Jacksonville,Florida,http://www.debellisautosofflorida.com,uy-402-os-lsyh
935,Flury Autos of Texas,214-327-1214,Dallas,Texas,http://www.fluryautosoftexas.com,wd-834-cb-0joj
936,Collins Autos of Louisiana,318-656-4221,Shreveport,Louisiana,http://www.collinsautosoflouisiana.com,cw-102-8i-k76h
937,Putland Autos of Florida,305-425-7130,Homestead,Florida,http://www.putlandautosofflorida.com,uj-354-ba-jj4c
938,McCutcheon Autos of Iowa,319-922-8935,Iowa City,Iowa,http://www.mccutcheonautosofiowa.com,gj-743-bh-6e17
939,MacConnal Autos of Mississippi,601-278-3166,Meridian,Mississippi,http://www.macconnalautosofmississippi.com,fb-425-4a-1owq
940,Kleint Autos of California,951-258-7204,Moreno Valley,California,http://www.kleintautosofcalifornia.com,kt-539-oi-m4kt
941,Cowern Autos of Alabama,256-155-0805,Huntsville,Alabama,http://www.cowernautosofalabama.com,db-232-6s-p9o4
942,Dobbson Autos of Utah,801-342-8501,Salt Lake City,Utah,http://www.dobbsonautosofutah.com,ma-863-vf-gc56
943,Weare Autos of Florida,772-297-6536,Vero Beach,Florida,http://www.weareautosofflorida.com,pw-202-pb-c98g
944,Marlen Autos of Massachusetts,617-577-9274,Boston,Massachusetts,http://www.marlenautosofmassachusetts.com,vm-090-3d-yzat
945,Allkins Autos of Louisiana,225-436-7933,Baton Rouge,Louisiana,http://www.allkinsautosoflouisiana.com,ul-687-1z-rcal
946,Kalinowsky Autos of Ohio,419-312-6511,Lima,Ohio,http://www.kalinowskyautosofohio.com,dn-566-ok-xv70
947,Jellman Autos of Nebraska,402-949-1026,Lincoln,Nebraska,http://www.jellmanautosofnebraska.com,sn-945-nq-ho55
948,Cubbinelli Autos of Virginia,540-274-8190,Roanoke,Virginia,http://www.cubbinelliautosofvirginia.com,pa-874-3p-i2zl
949,Dorian Autos of Texas,713-993-9014,Houston,Texas,http://www.dorianautosoftexas.com,ng-359-rn-eo8r
950,Cossell Autos of Kentucky,606-597-3975,London,Kentucky,http://www.cossellautosofkentucky.com,co-250-5m-mby3
951,Kearn Autos of Nebraska,402-672-7318,Omaha,Nebraska,http://www.kearnautosofnebraska.com,ue-679-a2-jkrf
952,Nesbit Autos of Texas,214-442-0925,Dallas,Texas,http://www.nesbitautosoftexas.com,qx-412-ui-8c1e
953,Tancock Autos of Florida,305-759-0393,Miami,Florida,http://www.tancockautosofflorida.com,to-540-ad-xkz0
954,Fludgate Autos of Ohio,216-687-9400,Cleveland,Ohio,http://www.fludgateautosofohio.com,jq-825-cr-jolq
955,Chrispin Autos of Washington,509-881-0066,Spokane,Washington,http://www.chrispinautosofwashington.com,rw-646-02-jsp3
956,Bisley Autos of Texas,210-420-6766,San Antonio,Texas,http://www.bisleyautosoftexas.com,zw-887-5s-4wgj
957,Janus Autos of Colorado,719-493-2302,Colorado Springs,Colorado,http://www.janusautosofcolorado.com,nl-579-jl-mi7j
958,Coltan Autos of New York,914-584-6419,Bronx,New York,http://www.coltanautosofnewyork.com,yz-435-2i-hfj2
959,Hebblewhite Autos of Alabama,205-962-5076,Tuscaloosa,Alabama,http://www.hebblewhiteautosofalabama.com,vm-486-jt-yh1p
960,Stummeyer Autos of Minnesota,763-998-8328,Minneapolis,Minnesota,http://www.stummeyerautosofminnesota.com,ty-329-d5-6hok
961,Bittany Autos of Virginia,757-829-5583,Hampton,Virginia,http://www.bittanyautosofvirginia.com,dh-149-rz-ii65
962,Jedrzejewicz Autos of Alabama,251-148-1669,Mobile,Alabama,http://www.jedrzejewiczautosofalabama.com,vo-680-nf-qgt1
963,Lazarus Autos of District of Columbia,202-329-7102,Washington,District of Columbia,http://www.lazarusautosofdistrictofcolumbia.com,ov-810-9c-vssz
964,Ducroe Autos of Texas,469-424-8629,Dallas,Texas,http://www.ducroeautosoftexas.com,mn-335-3l-7n9r
965,Doneld Autos of Florida,386-685-7953,Daytona Beach,Florida,http://www.doneldautosofflorida.com,gz-524-6b-uje0
966,Oliva Autos of New York,518-724-5675,Albany,New York,http://www.olivaautosofnewyork.com,zz-572-75-rp6j
967,McSharry Autos of Alaska,907-220-9451,Juneau,Alaska,http://www.mcsharryautosofalaska.com,ac-627-00-zzw3
968,Crossland Autos of New Hampshire,603-735-2169,Portsmouth,New Hampshire,http://www.crosslandautosofnewhampshire.com,mg-178-ep-9kxm
969,Flintoff Autos of District of Columbia,202-506-1450,Washington,District of Columbia,http://www.flintoffautosofdistrictofcolumbia.com,og-830-b9-pppi
970,Gooderidge Autos of Massachusetts,508-205-1568,Worcester,Massachusetts,http://www.gooderidgeautosofmassachusetts.com,go-940-dq-dzsw
971,Barnes Autos of Ohio,330-226-1224,Akron,Ohio,http://www.barnesautosofohio.com,xt-297-p8-0ctq
972,Lazar Autos of Texas,817-155-8324,Arlington,Texas,http://www.lazarautosoftexas.com,hc-350-jv-b7q6
973,Bidwell Autos of District of Columbia,202-596-2422,Washington,District of Columbia,http://www.bidwellautosofdistrictofcolumbia.com,xz-394-sb-nl49
974,Sandey Autos of District of Columbia,202-380-1124,Washington,District of Columbia,http://www.sandeyautosofdistrictofcolumbia.com,vh-658-sb-h072
975,Castleman Autos of Wisconsin,414-581-3317,Milwaukee,Wisconsin,http://www.castlemanautosofwisconsin.com,jt-932-jd-tkka
976,Nathon Autos of Illinois,217-890-5957,Decatur,Illinois,http://www.nathonautosofillinois.com,ub-259-gm-dw4u
977,Syalvester Autos of Michigan,517-356-7977,Lansing,Michigan,http://www.syalvesterautosofmichigan.com,ti-942-87-qozu
978,Plumer Autos of West Virginia,304-919-4747,Charleston,West Virginia,http://www.plumerautosofwestvirginia.com,pm-012-47-fahn
979,Verling Autos of Nevada,702-108-9711,North Las Vegas,Nevada,http://www.verlingautosofnevada.com,xk-278-45-pbs1
980,Burnel Autos of Iowa,712-881-8592,Sioux City,Iowa,http://www.burnelautosofiowa.com,ua-200-dx-1mek
981,Weerdenburg Autos of California,619-164-7499,San Diego,California,http://www.weerdenburgautosofcalifornia.com,ou-112-ao-kh3x
982,Standingford Autos of Michigan,313-889-3932,Detroit,Michigan,http://www.standingfordautosofmichigan.com,rp-344-dm-oz2c
983,Rubinek Autos of New Jersey,862-975-4052,Newark,New Jersey,http://www.rubinekautosofnewjersey.com,pn-641-2h-5j3a
984,Harman Autos of Texas,361-281-6375,Corpus Christi,Texas,http://www.harmanautosoftexas.com,ge-415-nd-zn91
985,Clara Autos of South Carolina,843-659-5555,Florence,South Carolina,http://www.claraautosofsouthcarolina.com,hy-329-og-e8sp
986,Ledwidge Autos of California,415-792-4518,San Francisco,California,http://www.ledwidgeautosofcalifornia.com,yd-138-aw-w2ez
987,McGreary Autos of Pennsylvania,484-335-9405,Reading,Pennsylvania,http://www.mcgrearyautosofpennsylvania.com,hq-246-yv-73nq
988,Kinig Autos of Florida,941-521-0032,Bonita Springs,Florida,http://www.kinigautosofflorida.com,by-976-et-rd6g
989,Barette Autos of Texas,512-897-9235,Austin,Texas,http://www.baretteautosoftexas.com,tu-797-t9-y8x1
990,Jeanin Autos of Texas,512-939-7100,Austin,Texas,http://www.jeaninautosoftexas.com,yh-829-vp-cz3n
991,Pealing Autos of Tennessee,423-891-2164,Kingsport,Tennessee,http://www.pealingautosoftennessee.com,yg-301-4w-y7h7
992,Hassell Autos of Maryland,410-808-8345,Baltimore,Maryland,http://www.hassellautosofmaryland.com,ea-113-qv-l1sa
993,Bronot Autos of Minnesota,763-433-5343,Maple Plain,Minnesota,http://www.bronotautosofminnesota.com,fz-979-co-yiac
994,Fenwick Autos of California,714-466-1128,Newport Beach,California,http://www.fenwickautosofcalifornia.com,cy-684-3o-xhqi
995,Ratter Autos of Virginia,804-834-4453,Richmond,Virginia,http://www.ratterautosofvirginia.com,zg-913-sy-pad4
996,Arkow Autos of Florida,941-157-5344,Bonita Springs,Florida,http://www.arkowautosofflorida.com,hm-628-xz-8rkc
997,Rugieri Autos of South Carolina,864-423-4204,Greenville,South Carolina,http://www.rugieriautosofsouthcarolina.com,yz-176-5i-7utf
998,Deshorts Autos of Texas,713-498-7381,Houston,Texas,http://www.deshortsautosoftexas.com,to-148-9z-7pak
999,Roggero Autos of California,714-460-9321,San Jose,California,http://www.roggeroautosofcalifornia.com,ft-568-fe-zr48
1000,Iorizzo Autos of Alabama,251-791-0173,Mobile,Alabama,http://www.iorizzoautosofalabama.com,wv-353-xu-18ff
